[
{"zip": "32008", "state": "FL", "latitude": " 29.928691", "longitude": " -82.91032", "city": "Branford", "fullState": "Florida"},
{"zip": "32009", "state": "FL", "latitude": " 30.421425", "longitude": " -81.95741", "city": "Bryceville", "fullState": "Florida"},
{"zip": "32011", "state": "FL", "latitude": " 30.567684", "longitude": " -81.84051", "city": "Callahan", "fullState": "Florida"},
{"zip": "32013", "state": "FL", "latitude": " 30.193758", "longitude": " -83.29266", "city": "Day", "fullState": "Florida"},
{"zip": "32024", "state": "FL", "latitude": " 30.108128", "longitude": " -82.72529", "city": "Lake City", "fullState": "Florida"},
{"zip": "32025", "state": "FL", "latitude": " 30.155229", "longitude": " -82.62165", "city": "Lake City", "fullState": "Florida"},
{"zip": "32033", "state": "FL", "latitude": " 29.787831", "longitude": " -81.44668", "city": "Elkton", "fullState": "Florida"},
{"zip": "32034", "state": "FL", "latitude": " 30.641487", "longitude": " -81.46092", "city": "Amelia Island", "fullState": "Florida"},
{"zip": "32038", "state": "FL", "latitude": " 29.922221", "longitude": " -82.71425", "city": "Fort White", "fullState": "Florida"},
{"zip": "32040", "state": "FL", "latitude": " 30.272356", "longitude": " -82.21351", "city": "Glen Saint Mary", "fullState": "Florida"},
{"zip": "32043", "state": "FL", "latitude": " 29.972890", "longitude": " -81.72195", "city": "Green Cove Sprin", "fullState": "Florida"},
{"zip": "32044", "state": "FL", "latitude": " 29.863141", "longitude": " -82.15623", "city": "Hampton", "fullState": "Florida"},
{"zip": "32046", "state": "FL", "latitude": " 30.685319", "longitude": " -81.93061", "city": "Hilliard", "fullState": "Florida"},
{"zip": "32052", "state": "FL", "latitude": " 30.491893", "longitude": " -82.94876", "city": "Jasper", "fullState": "Florida"},
{"zip": "32053", "state": "FL", "latitude": " 30.581517", "longitude": " -83.13841", "city": "Jennings", "fullState": "Florida"},
{"zip": "32054", "state": "FL", "latitude": " 30.005135", "longitude": " -82.38103", "city": "Lake Butler", "fullState": "Florida"},
{"zip": "32055", "state": "FL", "latitude": " 30.216073", "longitude": " -82.63960", "city": "Lake City", "fullState": "Florida"},
{"zip": "32058", "state": "FL", "latitude": " 30.061174", "longitude": " -82.09430", "city": "Lawtey", "fullState": "Florida"},
{"zip": "32059", "state": "FL", "latitude": " 30.421598", "longitude": " -83.27037", "city": "Lee", "fullState": "Florida"},
{"zip": "32060", "state": "FL", "latitude": " 30.285127", "longitude": " -83.04106", "city": "Boys Ranch", "fullState": "Florida"},
{"zip": "32061", "state": "FL", "latitude": " 30.101542", "longitude": " -82.50337", "city": "Lulu", "fullState": "Florida"},
{"zip": "32062", "state": "FL", "latitude": " 30.137620", "longitude": " -82.98732", "city": "Mc Alpin", "fullState": "Florida"},
{"zip": "32063", "state": "FL", "latitude": " 30.267664", "longitude": " -82.12457", "city": "Macclenny", "fullState": "Florida"},
{"zip": "32065", "state": "FL", "latitude": " 30.133007", "longitude": " -81.77904", "city": "Orange Park", "fullState": "Florida"},
{"zip": "32066", "state": "FL", "latitude": " 30.084849", "longitude": " -83.21849", "city": "Mayo", "fullState": "Florida"},
{"zip": "32068", "state": "FL", "latitude": " 30.074926", "longitude": " -81.87932", "city": "Middleburg", "fullState": "Florida"},
{"zip": "32071", "state": "FL", "latitude": " 30.039096", "longitude": " -82.94481", "city": "O Brien", "fullState": "Florida"},
{"zip": "32072", "state": "FL", "latitude": " 30.210947", "longitude": " -82.43601", "city": "Olustee", "fullState": "Florida"},
{"zip": "32073", "state": "FL", "latitude": " 30.160965", "longitude": " -81.72916", "city": "Orange Park", "fullState": "Florida"},
{"zip": "32079", "state": "FL", "latitude": " 29.979095", "longitude": " -81.80991", "city": "Penney Farms", "fullState": "Florida"},
{"zip": "32082", "state": "FL", "latitude": " 30.189934", "longitude": " -81.38213", "city": "Ponte Vedra Beac", "fullState": "Florida"},
{"zip": "32083", "state": "FL", "latitude": " 30.070341", "longitude": " -82.22371", "city": "Raiford", "fullState": "Florida"},
{"zip": "32084", "state": "FL", "latitude": " 29.871310", "longitude": " -81.29464", "city": "Saint Augustine", "fullState": "Florida"},
{"zip": "32086", "state": "FL", "latitude": " 29.811123", "longitude": " -81.30987", "city": "Saint Augustine", "fullState": "Florida"},
{"zip": "32087", "state": "FL", "latitude": " 30.390734", "longitude": " -82.26039", "city": "Sanderson", "fullState": "Florida"},
{"zip": "32091", "state": "FL", "latitude": " 29.937512", "longitude": " -82.11706", "city": "Starke", "fullState": "Florida"},
{"zip": "32092", "state": "FL", "latitude": " 29.955409", "longitude": " -81.51284", "city": "Saint Augustine", "fullState": "Florida"},
{"zip": "32094", "state": "FL", "latitude": " 30.203153", "longitude": " -82.81421", "city": "Wellborn", "fullState": "Florida"},
{"zip": "32095", "state": "FL", "latitude": " 29.923718", "longitude": " -81.33962", "city": "Saint Augustine", "fullState": "Florida"},
{"zip": "32096", "state": "FL", "latitude": " 30.366085", "longitude": " -82.76055", "city": "White Springs", "fullState": "Florida"},
{"zip": "32097", "state": "FL", "latitude": " 30.639280", "longitude": " -81.59442", "city": "Yulee", "fullState": "Florida"},
{"zip": "320HH", "state": "FL", "latitude": " 29.879378", "longitude": " -81.30691", "city": "", "fullState": "Florida"},
{"zip": "320XX", "state": "FL", "latitude": " 30.144882", "longitude": " -82.53938", "city": "", "fullState": "Florida"},
{"zip": "32102", "state": "FL", "latitude": " 29.174417", "longitude": " -81.56319", "city": "Astor", "fullState": "Florida"},
{"zip": "32110", "state": "FL", "latitude": " 29.445826", "longitude": " -81.30203", "city": "Bunnell", "fullState": "Florida"},
{"zip": "32112", "state": "FL", "latitude": " 29.425693", "longitude": " -81.55686", "city": "Crescent City", "fullState": "Florida"},
{"zip": "32113", "state": "FL", "latitude": " 29.393366", "longitude": " -82.09805", "city": "Citra", "fullState": "Florida"},
{"zip": "32114", "state": "FL", "latitude": " 29.204009", "longitude": " -81.03602", "city": "Daytona Beach", "fullState": "Florida"},
{"zip": "32117", "state": "FL", "latitude": " 29.238606", "longitude": " -81.05316", "city": "Holly Hill", "fullState": "Florida"},
{"zip": "32118", "state": "FL", "latitude": " 29.210309", "longitude": " -81.00259", "city": "Daytona Beach", "fullState": "Florida"},
{"zip": "32119", "state": "FL", "latitude": " 29.153239", "longitude": " -81.02229", "city": "Dunlawton", "fullState": "Florida"},
{"zip": "32124", "state": "FL", "latitude": " 29.105506", "longitude": " -81.08642", "city": "Port Orange", "fullState": "Florida"},
{"zip": "32127", "state": "FL", "latitude": " 29.116361", "longitude": " -80.98175", "city": "Port Orange", "fullState": "Florida"},
{"zip": "32130", "state": "FL", "latitude": " 29.140657", "longitude": " -81.34497", "city": "De Leon Springs", "fullState": "Florida"},
{"zip": "32131", "state": "FL", "latitude": " 29.668112", "longitude": " -81.59005", "city": "East Palatka", "fullState": "Florida"},
{"zip": "32132", "state": "FL", "latitude": " 28.982714", "longitude": " -80.91100", "city": "Edgewater", "fullState": "Florida"},
{"zip": "32134", "state": "FL", "latitude": " 29.401523", "longitude": " -81.83636", "city": "Salt Springs", "fullState": "Florida"},
{"zip": "32136", "state": "FL", "latitude": " 29.470330", "longitude": " -81.13316", "city": "Flagler Beach", "fullState": "Florida"},
{"zip": "32137", "state": "FL", "latitude": " 29.581683", "longitude": " -81.21645", "city": "Palm Coast", "fullState": "Florida"},
{"zip": "32138", "state": "FL", "latitude": " 29.727276", "longitude": " -81.92050", "city": "Grandin", "fullState": "Florida"},
{"zip": "32139", "state": "FL", "latitude": " 29.385225", "longitude": " -81.61052", "city": "Georgetown", "fullState": "Florida"},
{"zip": "32140", "state": "FL", "latitude": " 29.765329", "longitude": " -81.85602", "city": "Florahome", "fullState": "Florida"},
{"zip": "32141", "state": "FL", "latitude": " 28.944915", "longitude": " -80.89524", "city": "Edgewater", "fullState": "Florida"},
{"zip": "32145", "state": "FL", "latitude": " 29.656806", "longitude": " -81.46122", "city": "Hastings", "fullState": "Florida"},
{"zip": "32147", "state": "FL", "latitude": " 29.634649", "longitude": " -81.80743", "city": "Hollister", "fullState": "Florida"},
{"zip": "32148", "state": "FL", "latitude": " 29.640791", "longitude": " -81.88648", "city": "Interlachen", "fullState": "Florida"},
{"zip": "32157", "state": "FL", "latitude": " 29.467357", "longitude": " -81.57164", "city": "Lake Como", "fullState": "Florida"},
{"zip": "32159", "state": "FL", "latitude": " 28.930573", "longitude": " -81.93806", "city": "Lady Lake", "fullState": "Florida"},
{"zip": "32164", "state": "FL", "latitude": " 29.499591", "longitude": " -81.22328", "city": "Palm Coast", "fullState": "Florida"},
{"zip": "32168", "state": "FL", "latitude": " 29.016897", "longitude": " -80.95736", "city": "New Smyrna Beach", "fullState": "Florida"},
{"zip": "32169", "state": "FL", "latitude": " 28.998887", "longitude": " -80.87561", "city": "New Smyrna Beach", "fullState": "Florida"},
{"zip": "32174", "state": "FL", "latitude": " 29.284924", "longitude": " -81.10296", "city": "Ormond Beach", "fullState": "Florida"},
{"zip": "32176", "state": "FL", "latitude": " 29.316606", "longitude": " -81.05611", "city": "Ormond Beach", "fullState": "Florida"},
{"zip": "32177", "state": "FL", "latitude": " 29.666218", "longitude": " -81.67401", "city": "Palatka", "fullState": "Florida"},
{"zip": "32179", "state": "FL", "latitude": " 29.071931", "longitude": " -81.89073", "city": "Ocklawaha", "fullState": "Florida"},
{"zip": "32180", "state": "FL", "latitude": " 29.231366", "longitude": " -81.45095", "city": "Pierson", "fullState": "Florida"},
{"zip": "32181", "state": "FL", "latitude": " 29.488583", "longitude": " -81.60880", "city": "Pomona Park", "fullState": "Florida"},
{"zip": "32182", "state": "FL", "latitude": " 29.493034", "longitude": " -81.96523", "city": "Orange Springs", "fullState": "Florida"},
{"zip": "32183", "state": "FL", "latitude": " 29.084013", "longitude": " -81.83490", "city": "Ocklawaha", "fullState": "Florida"},
{"zip": "32185", "state": "FL", "latitude": " 29.740034", "longitude": " -81.95858", "city": "Putnam Hall", "fullState": "Florida"},
{"zip": "32187", "state": "FL", "latitude": " 29.589748", "longitude": " -81.57009", "city": "San Mateo", "fullState": "Florida"},
{"zip": "32189", "state": "FL", "latitude": " 29.556365", "longitude": " -81.64433", "city": "Satsuma", "fullState": "Florida"},
{"zip": "32190", "state": "FL", "latitude": " 29.332109", "longitude": " -81.50008", "city": "Seville", "fullState": "Florida"},
{"zip": "32193", "state": "FL", "latitude": " 29.476035", "longitude": " -81.66331", "city": "Welaka", "fullState": "Florida"},
{"zip": "32195", "state": "FL", "latitude": " 29.003387", "longitude": " -81.89262", "city": "Weirsdale", "fullState": "Florida"},
{"zip": "321HH", "state": "FL", "latitude": " 28.970324", "longitude": " -81.84272", "city": "", "fullState": "Florida"},
{"zip": "321XX", "state": "FL", "latitude": " 29.527076", "longitude": " -81.50906", "city": "", "fullState": "Florida"},
{"zip": "32202", "state": "FL", "latitude": " 30.328539", "longitude": " -81.65101", "city": "Jacksonville", "fullState": "Florida"},
{"zip": "32204", "state": "FL", "latitude": " 30.323806", "longitude": " -81.68174", "city": "Jacksonville", "fullState": "Florida"},
{"zip": "32205", "state": "FL", "latitude": " 30.307439", "longitude": " -81.72044", "city": "Jacksonville", "fullState": "Florida"},
{"zip": "32206", "state": "FL", "latitude": " 30.351006", "longitude": " -81.64664", "city": "Jacksonville", "fullState": "Florida"},
{"zip": "32207", "state": "FL", "latitude": " 30.294389", "longitude": " -81.63740", "city": "Jacksonville", "fullState": "Florida"},
{"zip": "32208", "state": "FL", "latitude": " 30.392888", "longitude": " -81.67933", "city": "Jacksonville", "fullState": "Florida"},
{"zip": "32209", "state": "FL", "latitude": " 30.354588", "longitude": " -81.69113", "city": "Jacksonville", "fullState": "Florida"},
{"zip": "32210", "state": "FL", "latitude": " 30.268572", "longitude": " -81.73987", "city": "Jacksonville", "fullState": "Florida"},
{"zip": "32211", "state": "FL", "latitude": " 30.333022", "longitude": " -81.58600", "city": "Jacksonville", "fullState": "Florida"},
{"zip": "32212", "state": "FL", "latitude": " 30.222683", "longitude": " -81.70165", "city": "Jacksonville N A", "fullState": "Florida"},
{"zip": "32215", "state": "FL", "latitude": " 30.232890", "longitude": " -81.91485", "city": "Cecil Field Nas", "fullState": "Florida"},
{"zip": "32216", "state": "FL", "latitude": " 30.283740", "longitude": " -81.58359", "city": "Jacksonville", "fullState": "Florida"},
{"zip": "32217", "state": "FL", "latitude": " 30.243540", "longitude": " -81.62098", "city": "Jacksonville", "fullState": "Florida"},
{"zip": "32218", "state": "FL", "latitude": " 30.449096", "longitude": " -81.65651", "city": "Jacksonville", "fullState": "Florida"},
{"zip": "32219", "state": "FL", "latitude": " 30.411564", "longitude": " -81.76653", "city": "Jacksonville", "fullState": "Florida"},
{"zip": "32220", "state": "FL", "latitude": " 30.329588", "longitude": " -81.80865", "city": "Jacksonville", "fullState": "Florida"},
{"zip": "32221", "state": "FL", "latitude": " 30.292631", "longitude": " -81.80502", "city": "Jacksonville", "fullState": "Florida"},
{"zip": "32222", "state": "FL", "latitude": " 30.230272", "longitude": " -81.81255", "city": "Jacksonville", "fullState": "Florida"},
{"zip": "32223", "state": "FL", "latitude": " 30.159091", "longitude": " -81.63073", "city": "Jacksonville", "fullState": "Florida"},
{"zip": "32224", "state": "FL", "latitude": " 30.284511", "longitude": " -81.47043", "city": "Jacksonville", "fullState": "Florida"},
{"zip": "32225", "state": "FL", "latitude": " 30.348585", "longitude": " -81.49965", "city": "Jacksonville", "fullState": "Florida"},
{"zip": "32226", "state": "FL", "latitude": " 30.453405", "longitude": " -81.52551", "city": "Jacksonville", "fullState": "Florida"},
{"zip": "32227", "state": "FL", "latitude": " 30.383023", "longitude": " -81.41049", "city": "Jacksonville Bea", "fullState": "Florida"},
{"zip": "32233", "state": "FL", "latitude": " 30.343407", "longitude": " -81.40949", "city": "Atlantic Beach", "fullState": "Florida"},
{"zip": "32234", "state": "FL", "latitude": " 30.226463", "longitude": " -81.98364", "city": "Baldwin", "fullState": "Florida"},
{"zip": "32244", "state": "FL", "latitude": " 30.222489", "longitude": " -81.74894", "city": "Jacksonville", "fullState": "Florida"},
{"zip": "32246", "state": "FL", "latitude": " 30.296911", "longitude": " -81.52228", "city": "Jacksonville", "fullState": "Florida"},
{"zip": "32250", "state": "FL", "latitude": " 30.284641", "longitude": " -81.39844", "city": "Jacksonville Bea", "fullState": "Florida"},
{"zip": "32254", "state": "FL", "latitude": " 30.336038", "longitude": " -81.72509", "city": "Jacksonville", "fullState": "Florida"},
{"zip": "32256", "state": "FL", "latitude": " 30.206922", "longitude": " -81.54604", "city": "Jacksonville", "fullState": "Florida"},
{"zip": "32257", "state": "FL", "latitude": " 30.192434", "longitude": " -81.60597", "city": "Jacksonville", "fullState": "Florida"},
{"zip": "32258", "state": "FL", "latitude": " 30.148209", "longitude": " -81.56882", "city": "Jacksonville", "fullState": "Florida"},
{"zip": "32259", "state": "FL", "latitude": " 30.092346", "longitude": " -81.60274", "city": "Jacksonville", "fullState": "Florida"},
{"zip": "32266", "state": "FL", "latitude": " 30.316641", "longitude": " -81.40308", "city": "Neptune Beach", "fullState": "Florida"},
{"zip": "32277", "state": "FL", "latitude": " 30.364339", "longitude": " -81.59087", "city": "Jacksonville", "fullState": "Florida"},
{"zip": "322HH", "state": "FL", "latitude": " 30.314922", "longitude": " -81.59431", "city": "", "fullState": "Florida"},
{"zip": "32301", "state": "FL", "latitude": " 30.431283", "longitude": " -84.26903", "city": "Tallahassee", "fullState": "Florida"},
{"zip": "32303", "state": "FL", "latitude": " 30.486061", "longitude": " -84.31528", "city": "Tallahassee", "fullState": "Florida"},
{"zip": "32304", "state": "FL", "latitude": " 30.446766", "longitude": " -84.32394", "city": "Tallahassee", "fullState": "Florida"},
{"zip": "32308", "state": "FL", "latitude": " 30.531677", "longitude": " -84.16049", "city": "Tallahassee", "fullState": "Florida"},
{"zip": "32310", "state": "FL", "latitude": " 30.400318", "longitude": " -84.34803", "city": "Tallahassee", "fullState": "Florida"},
{"zip": "32311", "state": "FL", "latitude": " 30.403146", "longitude": " -84.18841", "city": "Tallahassee", "fullState": "Florida"},
{"zip": "32312", "state": "FL", "latitude": " 30.554434", "longitude": " -84.25979", "city": "Tallahassee", "fullState": "Florida"},
{"zip": "32320", "state": "FL", "latitude": " 29.718770", "longitude": " -85.02704", "city": "Apalachicola", "fullState": "Florida"},
{"zip": "32321", "state": "FL", "latitude": " 30.360070", "longitude": " -84.97668", "city": "Bristol", "fullState": "Florida"},
{"zip": "32322", "state": "FL", "latitude": " 29.912584", "longitude": " -84.64070", "city": "Carrabelle", "fullState": "Florida"},
{"zip": "32323", "state": "FL", "latitude": " 29.879559", "longitude": " -84.60134", "city": "Lanark Village", "fullState": "Florida"},
{"zip": "32324", "state": "FL", "latitude": " 30.687983", "longitude": " -84.82180", "city": "Chattahoochee", "fullState": "Florida"},
{"zip": "32327", "state": "FL", "latitude": " 30.194939", "longitude": " -84.35533", "city": "Crawfordville", "fullState": "Florida"},
{"zip": "32328", "state": "FL", "latitude": " 29.825252", "longitude": " -84.89247", "city": "Saint George Isl", "fullState": "Florida"},
{"zip": "32330", "state": "FL", "latitude": " 30.571364", "longitude": " -84.74346", "city": "Greensboro", "fullState": "Florida"},
{"zip": "32331", "state": "FL", "latitude": " 30.442203", "longitude": " -83.65112", "city": "Greenville", "fullState": "Florida"},
{"zip": "32332", "state": "FL", "latitude": " 30.616479", "longitude": " -84.66292", "city": "Gretna", "fullState": "Florida"},
{"zip": "32333", "state": "FL", "latitude": " 30.607352", "longitude": " -84.41376", "city": "Havana", "fullState": "Florida"},
{"zip": "32334", "state": "FL", "latitude": " 30.381958", "longitude": " -84.77767", "city": "Hosford", "fullState": "Florida"},
{"zip": "32335", "state": "FL", "latitude": " 30.060351", "longitude": " -85.04477", "city": "Sumatra", "fullState": "Florida"},
{"zip": "32336", "state": "FL", "latitude": " 30.416739", "longitude": " -83.82390", "city": "Lamont", "fullState": "Florida"},
{"zip": "32337", "state": "FL", "latitude": " 30.478502", "longitude": " -84.02083", "city": "Lloyd", "fullState": "Florida"},
{"zip": "32340", "state": "FL", "latitude": " 30.476181", "longitude": " -83.40303", "city": "Madison", "fullState": "Florida"},
{"zip": "32343", "state": "FL", "latitude": " 30.494878", "longitude": " -84.46259", "city": "Midway", "fullState": "Florida"},
{"zip": "32344", "state": "FL", "latitude": " 30.530854", "longitude": " -83.88017", "city": "Monticello", "fullState": "Florida"},
{"zip": "32346", "state": "FL", "latitude": " 29.983931", "longitude": " -84.38798", "city": "Panacea", "fullState": "Florida"},
{"zip": "32347", "state": "FL", "latitude": " 30.080602", "longitude": " -83.58119", "city": "Perry", "fullState": "Florida"},
{"zip": "32350", "state": "FL", "latitude": " 30.594145", "longitude": " -83.32545", "city": "Pinetta", "fullState": "Florida"},
{"zip": "32351", "state": "FL", "latitude": " 30.573563", "longitude": " -84.61470", "city": "Quincy", "fullState": "Florida"},
{"zip": "32355", "state": "FL", "latitude": " 30.162414", "longitude": " -84.20923", "city": "Saint Marks", "fullState": "Florida"},
{"zip": "32356", "state": "FL", "latitude": " 29.900822", "longitude": " -83.42088", "city": "Salem", "fullState": "Florida"},
{"zip": "32357", "state": "FL", "latitude": " 30.281630", "longitude": " -83.63082", "city": "Shady Grove", "fullState": "Florida"},
{"zip": "32358", "state": "FL", "latitude": " 30.029899", "longitude": " -84.50595", "city": "Sopchoppy", "fullState": "Florida"},
{"zip": "32359", "state": "FL", "latitude": " 29.673459", "longitude": " -83.38416", "city": "Steinhatchee", "fullState": "Florida"},
{"zip": "32360", "state": "FL", "latitude": " 30.184365", "longitude": " -84.88355", "city": "Telogia", "fullState": "Florida"},
{"zip": "32361", "state": "FL", "latitude": " 30.357761", "longitude": " -83.98882", "city": "Wacissa", "fullState": "Florida"},
{"zip": "32399", "state": "FL", "latitude": " 30.420146", "longitude": " -84.23331", "city": "Tallahassee", "fullState": "Florida"},
{"zip": "323HH", "state": "FL", "latitude": " 30.072198", "longitude": " -84.49151", "city": "", "fullState": "Florida"},
{"zip": "323XX", "state": "FL", "latitude": " 30.137453", "longitude": " -83.97265", "city": "", "fullState": "Florida"},
{"zip": "32401", "state": "FL", "latitude": " 30.161901", "longitude": " -85.65297", "city": "Panama City", "fullState": "Florida"},
{"zip": "32403", "state": "FL", "latitude": " 30.068188", "longitude": " -85.60975", "city": "Panama City", "fullState": "Florida"},
{"zip": "32404", "state": "FL", "latitude": " 30.188585", "longitude": " -85.56392", "city": "Panama City", "fullState": "Florida"},
{"zip": "32405", "state": "FL", "latitude": " 30.195424", "longitude": " -85.66458", "city": "Panama City", "fullState": "Florida"},
{"zip": "32407", "state": "FL", "latitude": " 30.196771", "longitude": " -85.81279", "city": "Panama City Beac", "fullState": "Florida"},
{"zip": "32408", "state": "FL", "latitude": " 30.154621", "longitude": " -85.76367", "city": "Panama City Beac", "fullState": "Florida"},
{"zip": "32409", "state": "FL", "latitude": " 30.330553", "longitude": " -85.65413", "city": "Southport", "fullState": "Florida"},
{"zip": "32410", "state": "FL", "latitude": " 29.945008", "longitude": " -85.41461", "city": "Mexico Beach", "fullState": "Florida"},
{"zip": "32413", "state": "FL", "latitude": " 30.252616", "longitude": " -85.90413", "city": "Panama City Beac", "fullState": "Florida"},
{"zip": "32420", "state": "FL", "latitude": " 30.641154", "longitude": " -85.37542", "city": "Alford", "fullState": "Florida"},
{"zip": "32421", "state": "FL", "latitude": " 30.540300", "longitude": " -85.18229", "city": "Altha", "fullState": "Florida"},
{"zip": "32422", "state": "FL", "latitude": " 30.716494", "longitude": " -86.03889", "city": "Argyle", "fullState": "Florida"},
{"zip": "32423", "state": "FL", "latitude": " 30.959504", "longitude": " -85.05644", "city": "Bascom", "fullState": "Florida"},
{"zip": "32424", "state": "FL", "latitude": " 30.420070", "longitude": " -85.07299", "city": "Blountstown", "fullState": "Florida"},
{"zip": "32425", "state": "FL", "latitude": " 30.838337", "longitude": " -85.67495", "city": "Bonifay", "fullState": "Florida"},
{"zip": "32426", "state": "FL", "latitude": " 30.955359", "longitude": " -85.38288", "city": "Campbellton", "fullState": "Florida"},
{"zip": "32427", "state": "FL", "latitude": " 30.821603", "longitude": " -85.80600", "city": "Caryville", "fullState": "Florida"},
{"zip": "32428", "state": "FL", "latitude": " 30.636228", "longitude": " -85.57750", "city": "Chipley", "fullState": "Florida"},
{"zip": "32430", "state": "FL", "latitude": " 30.438819", "longitude": " -85.24381", "city": "Clarksville", "fullState": "Florida"},
{"zip": "32431", "state": "FL", "latitude": " 30.779196", "longitude": " -85.39371", "city": "Cottondale", "fullState": "Florida"},
{"zip": "32432", "state": "FL", "latitude": " 30.713868", "longitude": " -85.07790", "city": "Cypress", "fullState": "Florida"},
{"zip": "32433", "state": "FL", "latitude": " 30.747244", "longitude": " -86.14665", "city": "De Funiak Spring", "fullState": "Florida"},
{"zip": "32437", "state": "FL", "latitude": " 30.443152", "longitude": " -85.88079", "city": "Ebro", "fullState": "Florida"},
{"zip": "32438", "state": "FL", "latitude": " 30.488955", "longitude": " -85.41673", "city": "Fountain", "fullState": "Florida"},
{"zip": "32439", "state": "FL", "latitude": " 30.482838", "longitude": " -86.16750", "city": "Freeport", "fullState": "Florida"},
{"zip": "32440", "state": "FL", "latitude": " 30.935306", "longitude": " -85.52171", "city": "Graceville", "fullState": "Florida"},
{"zip": "32442", "state": "FL", "latitude": " 30.698517", "longitude": " -85.01619", "city": "Grand Ridge", "fullState": "Florida"},
{"zip": "32443", "state": "FL", "latitude": " 30.860528", "longitude": " -85.11142", "city": "Greenwood", "fullState": "Florida"},
{"zip": "32444", "state": "FL", "latitude": " 30.239849", "longitude": " -85.64577", "city": "Lynn Haven", "fullState": "Florida"},
{"zip": "32445", "state": "FL", "latitude": " 30.961401", "longitude": " -85.16919", "city": "Malone", "fullState": "Florida"},
{"zip": "32446", "state": "FL", "latitude": " 30.804698", "longitude": " -85.22060", "city": "Marianna", "fullState": "Florida"},
{"zip": "32447", "state": "FL", "latitude": " 30.759353", "longitude": " -85.25712", "city": "Marianna", "fullState": "Florida"},
{"zip": "32448", "state": "FL", "latitude": " 30.675635", "longitude": " -85.23283", "city": "Marianna", "fullState": "Florida"},
{"zip": "32449", "state": "FL", "latitude": " 30.283088", "longitude": " -85.21892", "city": "Kinard", "fullState": "Florida"},
{"zip": "32455", "state": "FL", "latitude": " 30.657214", "longitude": " -85.96035", "city": "Ponce De Leon", "fullState": "Florida"},
{"zip": "32456", "state": "FL", "latitude": " 29.846517", "longitude": " -85.32792", "city": "Port Saint Joe", "fullState": "Florida"},
{"zip": "32459", "state": "FL", "latitude": " 30.361248", "longitude": " -86.18759", "city": "Santa Rosa Beach", "fullState": "Florida"},
{"zip": "32460", "state": "FL", "latitude": " 30.735645", "longitude": " -84.94563", "city": "Sneads", "fullState": "Florida"},
{"zip": "32462", "state": "FL", "latitude": " 30.563809", "longitude": " -85.82357", "city": "Vernon", "fullState": "Florida"},
{"zip": "32463", "state": "FL", "latitude": " 30.631345", "longitude": " -85.58981", "city": "Wausau", "fullState": "Florida"},
{"zip": "32464", "state": "FL", "latitude": " 30.892936", "longitude": " -85.93988", "city": "Westville", "fullState": "Florida"},
{"zip": "32465", "state": "FL", "latitude": " 30.045471", "longitude": " -85.22822", "city": "Wewahitchka", "fullState": "Florida"},
{"zip": "32466", "state": "FL", "latitude": " 30.373845", "longitude": " -85.52891", "city": "Youngstown", "fullState": "Florida"},
{"zip": "324HH", "state": "FL", "latitude": " 30.289132", "longitude": " -85.65038", "city": "", "fullState": "Florida"},
{"zip": "324XX", "state": "FL", "latitude": " 30.438516", "longitude": " -85.55534", "city": "", "fullState": "Florida"},
{"zip": "32501", "state": "FL", "latitude": " 30.420997", "longitude": " -87.22305", "city": "Pensacola", "fullState": "Florida"},
{"zip": "32503", "state": "FL", "latitude": " 30.447997", "longitude": " -87.20727", "city": "Pensacola", "fullState": "Florida"},
{"zip": "32504", "state": "FL", "latitude": " 30.487870", "longitude": " -87.18937", "city": "Pensacola", "fullState": "Florida"},
{"zip": "32505", "state": "FL", "latitude": " 30.441994", "longitude": " -87.25472", "city": "Pensacola", "fullState": "Florida"},
{"zip": "32506", "state": "FL", "latitude": " 30.408807", "longitude": " -87.31919", "city": "Pensacola", "fullState": "Florida"},
{"zip": "32507", "state": "FL", "latitude": " 30.360887", "longitude": " -87.33451", "city": "Pensacola", "fullState": "Florida"},
{"zip": "32508", "state": "FL", "latitude": " 30.355477", "longitude": " -87.29035", "city": "Pensacola", "fullState": "Florida"},
{"zip": "32514", "state": "FL", "latitude": " 30.527195", "longitude": " -87.21485", "city": "Pensacola", "fullState": "Florida"},
{"zip": "32526", "state": "FL", "latitude": " 30.479002", "longitude": " -87.31996", "city": "Pensacola", "fullState": "Florida"},
{"zip": "32531", "state": "FL", "latitude": " 30.875200", "longitude": " -86.68607", "city": "Baker", "fullState": "Florida"},
{"zip": "32533", "state": "FL", "latitude": " 30.600993", "longitude": " -87.31979", "city": "Cantonment", "fullState": "Florida"},
{"zip": "32534", "state": "FL", "latitude": " 30.526345", "longitude": " -87.27734", "city": "Pensacola", "fullState": "Florida"},
{"zip": "32535", "state": "FL", "latitude": " 30.969066", "longitude": " -87.30604", "city": "Century", "fullState": "Florida"},
{"zip": "32536", "state": "FL", "latitude": " 30.760184", "longitude": " -86.58533", "city": "Crestview", "fullState": "Florida"},
{"zip": "32539", "state": "FL", "latitude": " 30.757479", "longitude": " -86.51088", "city": "Crestview", "fullState": "Florida"},
{"zip": "32541", "state": "FL", "latitude": " 30.391795", "longitude": " -86.43380", "city": "Sandestin", "fullState": "Florida"},
{"zip": "32542", "state": "FL", "latitude": " 30.457156", "longitude": " -86.55081", "city": "Eglin A F B", "fullState": "Florida"},
{"zip": "32544", "state": "FL", "latitude": " 30.464755", "longitude": " -86.64643", "city": "Hurlburt Field", "fullState": "Florida"},
{"zip": "32547", "state": "FL", "latitude": " 30.447248", "longitude": " -86.62113", "city": "Fort Walton Beac", "fullState": "Florida"},
{"zip": "32548", "state": "FL", "latitude": " 30.414932", "longitude": " -86.61992", "city": "Fort Walton Beac", "fullState": "Florida"},
{"zip": "32561", "state": "FL", "latitude": " 30.375469", "longitude": " -87.09013", "city": "Gulf Breeze", "fullState": "Florida"},
{"zip": "32564", "state": "FL", "latitude": " 30.717437", "longitude": " -86.77075", "city": "Holt", "fullState": "Florida"},
{"zip": "32565", "state": "FL", "latitude": " 30.902015", "longitude": " -87.13267", "city": "Jay", "fullState": "Florida"},
{"zip": "32566", "state": "FL", "latitude": " 30.435069", "longitude": " -86.89025", "city": "Navarre", "fullState": "Florida"},
{"zip": "32567", "state": "FL", "latitude": " 30.945123", "longitude": " -86.43749", "city": "Laurel Hill", "fullState": "Florida"},
{"zip": "32568", "state": "FL", "latitude": " 30.878449", "longitude": " -87.47861", "city": "Walnut Hill", "fullState": "Florida"},
{"zip": "32569", "state": "FL", "latitude": " 30.409902", "longitude": " -86.71497", "city": "Mary Esther", "fullState": "Florida"},
{"zip": "32570", "state": "FL", "latitude": " 30.709690", "longitude": " -87.01098", "city": "Milton", "fullState": "Florida"},
{"zip": "32571", "state": "FL", "latitude": " 30.627637", "longitude": " -87.16724", "city": "Pace", "fullState": "Florida"},
{"zip": "32577", "state": "FL", "latitude": " 30.743945", "longitude": " -87.34872", "city": "Molino", "fullState": "Florida"},
{"zip": "32578", "state": "FL", "latitude": " 30.500901", "longitude": " -86.45335", "city": "Niceville", "fullState": "Florida"},
{"zip": "32579", "state": "FL", "latitude": " 30.444975", "longitude": " -86.57331", "city": "Shalimar", "fullState": "Florida"},
{"zip": "32580", "state": "FL", "latitude": " 30.507047", "longitude": " -86.49702", "city": "Valparaiso", "fullState": "Florida"},
{"zip": "32583", "state": "FL", "latitude": " 30.581490", "longitude": " -87.00178", "city": "Milton", "fullState": "Florida"},
{"zip": "325HH", "state": "FL", "latitude": " 30.458963", "longitude": " -86.96635", "city": "", "fullState": "Florida"},
{"zip": "325XX", "state": "FL", "latitude": " 30.734743", "longitude": " -86.84093", "city": "", "fullState": "Florida"},
{"zip": "32601", "state": "FL", "latitude": " 29.653195", "longitude": " -82.32440", "city": "Gainesville", "fullState": "Florida"},
{"zip": "32603", "state": "FL", "latitude": " 29.653145", "longitude": " -82.34690", "city": "Gainesville", "fullState": "Florida"},
{"zip": "32605", "state": "FL", "latitude": " 29.676006", "longitude": " -82.36889", "city": "Gainesville", "fullState": "Florida"},
{"zip": "32606", "state": "FL", "latitude": " 29.681426", "longitude": " -82.41502", "city": "Gainesville", "fullState": "Florida"},
{"zip": "32607", "state": "FL", "latitude": " 29.646189", "longitude": " -82.39658", "city": "Gainesville", "fullState": "Florida"},
{"zip": "32608", "state": "FL", "latitude": " 29.611545", "longitude": " -82.39410", "city": "Gainesville", "fullState": "Florida"},
{"zip": "32609", "state": "FL", "latitude": " 29.713911", "longitude": " -82.29591", "city": "Gainesville", "fullState": "Florida"},
{"zip": "32615", "state": "FL", "latitude": " 29.801949", "longitude": " -82.48872", "city": "Santa Fe", "fullState": "Florida"},
{"zip": "32616", "state": "FL", "latitude": " 29.790674", "longitude": " -82.49351", "city": "Alachua", "fullState": "Florida"},
{"zip": "32617", "state": "FL", "latitude": " 29.315961", "longitude": " -82.10092", "city": "Anthony", "fullState": "Florida"},
{"zip": "32618", "state": "FL", "latitude": " 29.517277", "longitude": " -82.54518", "city": "Archer", "fullState": "Florida"},
{"zip": "32619", "state": "FL", "latitude": " 29.764553", "longitude": " -82.87062", "city": "Bell", "fullState": "Florida"},
{"zip": "32621", "state": "FL", "latitude": " 29.447069", "longitude": " -82.60452", "city": "Bronson", "fullState": "Florida"},
{"zip": "32622", "state": "FL", "latitude": " 29.896156", "longitude": " -82.30358", "city": "Brooker", "fullState": "Florida"},
{"zip": "32625", "state": "FL", "latitude": " 29.178171", "longitude": " -83.02243", "city": "Cedar Key", "fullState": "Florida"},
{"zip": "32626", "state": "FL", "latitude": " 29.453178", "longitude": " -82.86837", "city": "Chiefland", "fullState": "Florida"},
{"zip": "32628", "state": "FL", "latitude": " 29.630964", "longitude": " -83.11480", "city": "Cross City", "fullState": "Florida"},
{"zip": "32639", "state": "FL", "latitude": " 29.231843", "longitude": " -82.72965", "city": "Gulf Hammock", "fullState": "Florida"},
{"zip": "32640", "state": "FL", "latitude": " 29.601599", "longitude": " -82.03090", "city": "Hawthorne", "fullState": "Florida"},
{"zip": "32641", "state": "FL", "latitude": " 29.648594", "longitude": " -82.28621", "city": "Gainesville", "fullState": "Florida"},
{"zip": "32643", "state": "FL", "latitude": " 29.823616", "longitude": " -82.60407", "city": "High Springs", "fullState": "Florida"},
{"zip": "32648", "state": "FL", "latitude": " 29.458513", "longitude": " -83.27604", "city": "Horseshoe Beach", "fullState": "Florida"},
{"zip": "32653", "state": "FL", "latitude": " 29.735832", "longitude": " -82.39008", "city": "Gainesville", "fullState": "Florida"},
{"zip": "32654", "state": "FL", "latitude": " 29.459973", "longitude": " -82.10819", "city": "Island Grove", "fullState": "Florida"},
{"zip": "32656", "state": "FL", "latitude": " 29.788679", "longitude": " -82.00421", "city": "Keystone Heights", "fullState": "Florida"},
{"zip": "32658", "state": "FL", "latitude": " 29.845122", "longitude": " -82.39845", "city": "La Crosse", "fullState": "Florida"},
{"zip": "32662", "state": "FL", "latitude": " 29.514298", "longitude": " -82.09829", "city": "Lochloosa", "fullState": "Florida"},
{"zip": "32664", "state": "FL", "latitude": " 29.450353", "longitude": " -82.22069", "city": "Mc Intosh", "fullState": "Florida"},
{"zip": "32666", "state": "FL", "latitude": " 29.733375", "longitude": " -82.01048", "city": "Melrose", "fullState": "Florida"},
{"zip": "32667", "state": "FL", "latitude": " 29.502067", "longitude": " -82.27775", "city": "Micanopy", "fullState": "Florida"},
{"zip": "32668", "state": "FL", "latitude": " 29.282158", "longitude": " -82.51776", "city": "Morriston", "fullState": "Florida"},
{"zip": "32669", "state": "FL", "latitude": " 29.640613", "longitude": " -82.59446", "city": "Newberry", "fullState": "Florida"},
{"zip": "32680", "state": "FL", "latitude": " 29.643244", "longitude": " -82.99026", "city": "Old Town", "fullState": "Florida"},
{"zip": "32681", "state": "FL", "latitude": " 29.425291", "longitude": " -82.21580", "city": "Orange Lake", "fullState": "Florida"},
{"zip": "32683", "state": "FL", "latitude": " 29.319173", "longitude": " -82.77965", "city": "Otter Creek", "fullState": "Florida"},
{"zip": "32686", "state": "FL", "latitude": " 29.364039", "longitude": " -82.23483", "city": "Reddick", "fullState": "Florida"},
{"zip": "32692", "state": "FL", "latitude": " 29.330426", "longitude": " -83.14401", "city": "Suwannee", "fullState": "Florida"},
{"zip": "32693", "state": "FL", "latitude": " 29.598935", "longitude": " -82.82752", "city": "Trenton", "fullState": "Florida"},
{"zip": "32694", "state": "FL", "latitude": " 29.789597", "longitude": " -82.16210", "city": "Waldo", "fullState": "Florida"},
{"zip": "32696", "state": "FL", "latitude": " 29.369207", "longitude": " -82.49831", "city": "Williston", "fullState": "Florida"},
{"zip": "32697", "state": "FL", "latitude": " 29.931204", "longitude": " -82.42643", "city": "Worthington Springs", "fullState": "Florida"},
{"zip": "326HH", "state": "FL", "latitude": " 29.523639", "longitude": " -82.36117", "city": "", "fullState": "Florida"},
{"zip": "326XX", "state": "FL", "latitude": " 29.489855", "longitude": " -83.04044", "city": "", "fullState": "Florida"},
{"zip": "32701", "state": "FL", "latitude": " 28.666249", "longitude": " -81.36796", "city": "Altamonte Spring", "fullState": "Florida"},
{"zip": "32702", "state": "FL", "latitude": " 29.046215", "longitude": " -81.64043", "city": "Altoona", "fullState": "Florida"},
{"zip": "32703", "state": "FL", "latitude": " 28.658395", "longitude": " -81.50319", "city": "Hunt Club", "fullState": "Florida"},
{"zip": "32706", "state": "FL", "latitude": " 28.965591", "longitude": " -81.23654", "city": "Cassadaga", "fullState": "Florida"},
{"zip": "32707", "state": "FL", "latitude": " 28.665125", "longitude": " -81.31772", "city": "Casselberry", "fullState": "Florida"},
{"zip": "32708", "state": "FL", "latitude": " 28.683408", "longitude": " -81.28151", "city": "Winter Springs", "fullState": "Florida"},
{"zip": "32709", "state": "FL", "latitude": " 28.513011", "longitude": " -80.99418", "city": "Christmas", "fullState": "Florida"},
{"zip": "32712", "state": "FL", "latitude": " 28.713173", "longitude": " -81.52359", "city": "Apopka", "fullState": "Florida"},
{"zip": "32713", "state": "FL", "latitude": " 28.888595", "longitude": " -81.31212", "city": "Debary", "fullState": "Florida"},
{"zip": "32714", "state": "FL", "latitude": " 28.663913", "longitude": " -81.41112", "city": "Forest City", "fullState": "Florida"},
{"zip": "32720", "state": "FL", "latitude": " 29.021782", "longitude": " -81.33352", "city": "Deland", "fullState": "Florida"},
{"zip": "32724", "state": "FL", "latitude": " 29.039757", "longitude": " -81.27927", "city": "Deland", "fullState": "Florida"},
{"zip": "32725", "state": "FL", "latitude": " 28.902426", "longitude": " -81.24515", "city": "Deltona", "fullState": "Florida"},
{"zip": "32726", "state": "FL", "latitude": " 28.850617", "longitude": " -81.68034", "city": "Eustis", "fullState": "Florida"},
{"zip": "32730", "state": "FL", "latitude": " 28.653875", "longitude": " -81.34387", "city": "Fern Park", "fullState": "Florida"},
{"zip": "32732", "state": "FL", "latitude": " 28.746588", "longitude": " -81.10985", "city": "Geneva", "fullState": "Florida"},
{"zip": "32735", "state": "FL", "latitude": " 28.893559", "longitude": " -81.74343", "city": "Grand Island", "fullState": "Florida"},
{"zip": "32736", "state": "FL", "latitude": " 28.895482", "longitude": " -81.52280", "city": "Eustis", "fullState": "Florida"},
{"zip": "32738", "state": "FL", "latitude": " 28.910383", "longitude": " -81.18764", "city": "Deltona", "fullState": "Florida"},
{"zip": "32744", "state": "FL", "latitude": " 28.985274", "longitude": " -81.23495", "city": "Lake Helen", "fullState": "Florida"},
{"zip": "32746", "state": "FL", "latitude": " 28.758133", "longitude": " -81.33992", "city": "Heathrow", "fullState": "Florida"},
{"zip": "32750", "state": "FL", "latitude": " 28.703674", "longitude": " -81.35384", "city": "Longwood", "fullState": "Florida"},
{"zip": "32751", "state": "FL", "latitude": " 28.628359", "longitude": " -81.35942", "city": "Eatonville", "fullState": "Florida"},
{"zip": "32754", "state": "FL", "latitude": " 28.707648", "longitude": " -80.89049", "city": "Mims", "fullState": "Florida"},
{"zip": "32757", "state": "FL", "latitude": " 28.786272", "longitude": " -81.64475", "city": "Mount Dora", "fullState": "Florida"},
{"zip": "32759", "state": "FL", "latitude": " 28.868986", "longitude": " -80.85374", "city": "Oak Hill", "fullState": "Florida"},
{"zip": "32763", "state": "FL", "latitude": " 28.945857", "longitude": " -81.30512", "city": "Orange City", "fullState": "Florida"},
{"zip": "32764", "state": "FL", "latitude": " 28.834172", "longitude": " -81.09480", "city": "Osteen", "fullState": "Florida"},
{"zip": "32765", "state": "FL", "latitude": " 28.656375", "longitude": " -81.21026", "city": "Oviedo", "fullState": "Florida"},
{"zip": "32766", "state": "FL", "latitude": " 28.639275", "longitude": " -81.11906", "city": "Chuluota", "fullState": "Florida"},
{"zip": "32767", "state": "FL", "latitude": " 29.008612", "longitude": " -81.50174", "city": "Paisley", "fullState": "Florida"},
{"zip": "32771", "state": "FL", "latitude": " 28.803979", "longitude": " -81.28761", "city": "Sanford", "fullState": "Florida"},
{"zip": "32773", "state": "FL", "latitude": " 28.769173", "longitude": " -81.27631", "city": "Sanford", "fullState": "Florida"},
{"zip": "32775", "state": "FL", "latitude": " 28.765070", "longitude": " -80.87315", "city": "Scottsmoor", "fullState": "Florida"},
{"zip": "32776", "state": "FL", "latitude": " 28.804039", "longitude": " -81.53689", "city": "Sorrento", "fullState": "Florida"},
{"zip": "32778", "state": "FL", "latitude": " 28.799017", "longitude": " -81.73184", "city": "Tavares", "fullState": "Florida"},
{"zip": "32779", "state": "FL", "latitude": " 28.704874", "longitude": " -81.41711", "city": "Springs Plaza", "fullState": "Florida"},
{"zip": "32780", "state": "FL", "latitude": " 28.564077", "longitude": " -80.81695", "city": "Titusville", "fullState": "Florida"},
{"zip": "32784", "state": "FL", "latitude": " 28.948549", "longitude": " -81.70621", "city": "Dona Vista", "fullState": "Florida"},
{"zip": "32789", "state": "FL", "latitude": " 28.598677", "longitude": " -81.35594", "city": "Winter Park", "fullState": "Florida"},
{"zip": "32792", "state": "FL", "latitude": " 28.607077", "longitude": " -81.30606", "city": "Aloma", "fullState": "Florida"},
{"zip": "32796", "state": "FL", "latitude": " 28.623371", "longitude": " -80.84123", "city": "Titusville", "fullState": "Florida"},
{"zip": "32798", "state": "FL", "latitude": " 28.716923", "longitude": " -81.57540", "city": "Zellwood", "fullState": "Florida"},
{"zip": "327HH", "state": "FL", "latitude": " 28.947505", "longitude": " -81.56120", "city": "", "fullState": "Florida"},
{"zip": "327XX", "state": "FL", "latitude": " 28.811429", "longitude": " -81.03705", "city": "", "fullState": "Florida"},
{"zip": "32801", "state": "FL", "latitude": " 28.541879", "longitude": " -81.37446", "city": "Orlando", "fullState": "Florida"},
{"zip": "32803", "state": "FL", "latitude": " 28.557579", "longitude": " -81.35244", "city": "Orlando", "fullState": "Florida"},
{"zip": "32804", "state": "FL", "latitude": " 28.577723", "longitude": " -81.39310", "city": "Fairvilla", "fullState": "Florida"},
{"zip": "32805", "state": "FL", "latitude": " 28.530280", "longitude": " -81.40089", "city": "Orlando", "fullState": "Florida"},
{"zip": "32806", "state": "FL", "latitude": " 28.514830", "longitude": " -81.36054", "city": "Orlando", "fullState": "Florida"},
{"zip": "32807", "state": "FL", "latitude": " 28.546897", "longitude": " -81.30774", "city": "Azalea Park", "fullState": "Florida"},
{"zip": "32808", "state": "FL", "latitude": " 28.576028", "longitude": " -81.44369", "city": "Pine Hills", "fullState": "Florida"},
{"zip": "32809", "state": "FL", "latitude": " 28.463482", "longitude": " -81.38814", "city": "Pine Castle", "fullState": "Florida"},
{"zip": "32810", "state": "FL", "latitude": " 28.619445", "longitude": " -81.42695", "city": "Lockhart", "fullState": "Florida"},
{"zip": "32811", "state": "FL", "latitude": " 28.524930", "longitude": " -81.43994", "city": "Orlo Vista", "fullState": "Florida"},
{"zip": "32812", "state": "FL", "latitude": " 28.493531", "longitude": " -81.32609", "city": "Orlando", "fullState": "Florida"},
{"zip": "32817", "state": "FL", "latitude": " 28.591692", "longitude": " -81.24717", "city": "Union Park", "fullState": "Florida"},
{"zip": "32818", "state": "FL", "latitude": " 28.583103", "longitude": " -81.48608", "city": "Orlando", "fullState": "Florida"},
{"zip": "32819", "state": "FL", "latitude": " 28.463509", "longitude": " -81.47514", "city": "Sand Lake", "fullState": "Florida"},
{"zip": "32820", "state": "FL", "latitude": " 28.561242", "longitude": " -81.10735", "city": "Union Park", "fullState": "Florida"},
{"zip": "32821", "state": "FL", "latitude": " 28.391608", "longitude": " -81.47345", "city": "Orlando", "fullState": "Florida"},
{"zip": "32822", "state": "FL", "latitude": " 28.494931", "longitude": " -81.28949", "city": "Ventura", "fullState": "Florida"},
{"zip": "32824", "state": "FL", "latitude": " 28.410872", "longitude": " -81.35898", "city": "Orlando", "fullState": "Florida"},
{"zip": "32825", "state": "FL", "latitude": " 28.543248", "longitude": " -81.24560", "city": "Orlando", "fullState": "Florida"},
{"zip": "32826", "state": "FL", "latitude": " 28.584177", "longitude": " -81.18634", "city": "Orlando", "fullState": "Florida"},
{"zip": "32827", "state": "FL", "latitude": " 28.425221", "longitude": " -81.30353", "city": "Orlando", "fullState": "Florida"},
{"zip": "32828", "state": "FL", "latitude": " 28.542132", "longitude": " -81.18404", "city": "Orlando", "fullState": "Florida"},
{"zip": "32829", "state": "FL", "latitude": " 28.491653", "longitude": " -81.26436", "city": "Orlando", "fullState": "Florida"},
{"zip": "32831", "state": "FL", "latitude": " 28.458149", "longitude": " -81.13666", "city": "Orlando", "fullState": "Florida"},
{"zip": "32832", "state": "FL", "latitude": " 28.395979", "longitude": " -81.17653", "city": "Orlando", "fullState": "Florida"},
{"zip": "32833", "state": "FL", "latitude": " 28.511879", "longitude": " -81.09078", "city": "Union Park", "fullState": "Florida"},
{"zip": "32835", "state": "FL", "latitude": " 28.528789", "longitude": " -81.47863", "city": "Orlando", "fullState": "Florida"},
{"zip": "32836", "state": "FL", "latitude": " 28.401151", "longitude": " -81.52488", "city": "Orlando", "fullState": "Florida"},
{"zip": "32837", "state": "FL", "latitude": " 28.385906", "longitude": " -81.41182", "city": "Orlando", "fullState": "Florida"},
{"zip": "32839", "state": "FL", "latitude": " 28.489758", "longitude": " -81.40625", "city": "Orlando", "fullState": "Florida"},
{"zip": "328HH", "state": "FL", "latitude": " 28.449532", "longitude": " -81.25337", "city": "", "fullState": "Florida"},
{"zip": "32901", "state": "FL", "latitude": " 28.077494", "longitude": " -80.61987", "city": "Melbourne", "fullState": "Florida"},
{"zip": "32903", "state": "FL", "latitude": " 28.103191", "longitude": " -80.57414", "city": "Indialantic", "fullState": "Florida"},
{"zip": "32904", "state": "FL", "latitude": " 28.073891", "longitude": " -80.67167", "city": "Melbourne Villag", "fullState": "Florida"},
{"zip": "32905", "state": "FL", "latitude": " 28.031689", "longitude": " -80.60014", "city": "Palm Bay", "fullState": "Florida"},
{"zip": "32907", "state": "FL", "latitude": " 28.012241", "longitude": " -80.67729", "city": "Palm Bay", "fullState": "Florida"},
{"zip": "32908", "state": "FL", "latitude": " 27.958982", "longitude": " -80.68591", "city": "Palm Bay", "fullState": "Florida"},
{"zip": "32909", "state": "FL", "latitude": " 27.950975", "longitude": " -80.64679", "city": "Palm Bay", "fullState": "Florida"},
{"zip": "32920", "state": "FL", "latitude": " 28.390932", "longitude": " -80.60501", "city": "Cape Canaveral", "fullState": "Florida"},
{"zip": "32922", "state": "FL", "latitude": " 28.366284", "longitude": " -80.74196", "city": "Cocoa", "fullState": "Florida"},
{"zip": "32925", "state": "FL", "latitude": " 28.235092", "longitude": " -80.60159", "city": "Patrick A F B", "fullState": "Florida"},
{"zip": "32926", "state": "FL", "latitude": " 28.392933", "longitude": " -80.79585", "city": "Cocoa", "fullState": "Florida"},
{"zip": "32927", "state": "FL", "latitude": " 28.471230", "longitude": " -80.79887", "city": "Port Saint John", "fullState": "Florida"},
{"zip": "32931", "state": "FL", "latitude": " 28.326985", "longitude": " -80.61119", "city": "Cocoa Beach", "fullState": "Florida"},
{"zip": "32934", "state": "FL", "latitude": " 28.137443", "longitude": " -80.69211", "city": "Eau Gallie", "fullState": "Florida"},
{"zip": "32935", "state": "FL", "latitude": " 28.139260", "longitude": " -80.65077", "city": "Melbourne", "fullState": "Florida"},
{"zip": "32937", "state": "FL", "latitude": " 28.172041", "longitude": " -80.59957", "city": "Indian Harbor Be", "fullState": "Florida"},
{"zip": "32940", "state": "FL", "latitude": " 28.219810", "longitude": " -80.69402", "city": "Melbourne", "fullState": "Florida"},
{"zip": "32948", "state": "FL", "latitude": " 27.762118", "longitude": " -80.59472", "city": "Fellsmere", "fullState": "Florida"},
{"zip": "32949", "state": "FL", "latitude": " 27.929103", "longitude": " -80.52879", "city": "Grant", "fullState": "Florida"},
{"zip": "32950", "state": "FL", "latitude": " 27.974173", "longitude": " -80.56986", "city": "Malabar", "fullState": "Florida"},
{"zip": "32951", "state": "FL", "latitude": " 28.015140", "longitude": " -80.53518", "city": "Melbourne Beach", "fullState": "Florida"},
{"zip": "32952", "state": "FL", "latitude": " 28.350373", "longitude": " -80.66910", "city": "Merritt Island", "fullState": "Florida"},
{"zip": "32953", "state": "FL", "latitude": " 28.396301", "longitude": " -80.70198", "city": "Merritt Island", "fullState": "Florida"},
{"zip": "32955", "state": "FL", "latitude": " 28.308581", "longitude": " -80.72558", "city": "Rockledge", "fullState": "Florida"},
{"zip": "32958", "state": "FL", "latitude": " 27.787830", "longitude": " -80.48266", "city": "Sebastian", "fullState": "Florida"},
{"zip": "32960", "state": "FL", "latitude": " 27.636828", "longitude": " -80.40294", "city": "Vero Beach", "fullState": "Florida"},
{"zip": "32962", "state": "FL", "latitude": " 27.582151", "longitude": " -80.39141", "city": "Vero Beach", "fullState": "Florida"},
{"zip": "32963", "state": "FL", "latitude": " 27.676376", "longitude": " -80.37248", "city": "Indian River Sho", "fullState": "Florida"},
{"zip": "32966", "state": "FL", "latitude": " 27.645377", "longitude": " -80.51468", "city": "Vero Beach", "fullState": "Florida"},
{"zip": "32967", "state": "FL", "latitude": " 27.724801", "longitude": " -80.49708", "city": "Vero Beach", "fullState": "Florida"},
{"zip": "32968", "state": "FL", "latitude": " 27.594718", "longitude": " -80.45722", "city": "Vero Beach", "fullState": "Florida"},
{"zip": "32970", "state": "FL", "latitude": " 27.750176", "longitude": " -80.45364", "city": "Wabasso", "fullState": "Florida"},
{"zip": "32976", "state": "FL", "latitude": " 27.877504", "longitude": " -80.51457", "city": "Barefoot Bay", "fullState": "Florida"},
{"zip": "329HH", "state": "FL", "latitude": " 28.144061", "longitude": " -80.57894", "city": "", "fullState": "Florida"},
{"zip": "329XX", "state": "FL", "latitude": " 28.518972", "longitude": " -80.66016", "city": "", "fullState": "Florida"},
{"zip": "33001", "state": "FL", "latitude": " 24.841814", "longitude": " -80.79405", "city": "Long Key", "fullState": "Florida"},
{"zip": "33004", "state": "FL", "latitude": " 26.051916", "longitude": " -80.14526", "city": "Dania", "fullState": "Florida"},
{"zip": "33009", "state": "FL", "latitude": " 25.987069", "longitude": " -80.15004", "city": "Hallandale", "fullState": "Florida"},
{"zip": "33010", "state": "FL", "latitude": " 25.832374", "longitude": " -80.27874", "city": "Hialeah", "fullState": "Florida"},
{"zip": "33012", "state": "FL", "latitude": " 25.864773", "longitude": " -80.30069", "city": "Hialeah", "fullState": "Florida"},
{"zip": "33013", "state": "FL", "latitude": " 25.860373", "longitude": " -80.27174", "city": "Hialeah", "fullState": "Florida"},
{"zip": "33014", "state": "FL", "latitude": " 25.902172", "longitude": " -80.30732", "city": "Hialeah", "fullState": "Florida"},
{"zip": "33015", "state": "FL", "latitude": " 25.938687", "longitude": " -80.31820", "city": "Hialeah", "fullState": "Florida"},
{"zip": "33016", "state": "FL", "latitude": " 25.887983", "longitude": " -80.33284", "city": "Hialeah", "fullState": "Florida"},
{"zip": "33018", "state": "FL", "latitude": " 25.895557", "longitude": " -80.35509", "city": "Hialeah", "fullState": "Florida"},
{"zip": "33019", "state": "FL", "latitude": " 26.018967", "longitude": " -80.12231", "city": "Hollywood", "fullState": "Florida"},
{"zip": "33020", "state": "FL", "latitude": " 26.016984", "longitude": " -80.14925", "city": "Hollywood", "fullState": "Florida"},
{"zip": "33021", "state": "FL", "latitude": " 26.023634", "longitude": " -80.18922", "city": "Hollywood", "fullState": "Florida"},
{"zip": "33023", "state": "FL", "latitude": " 25.989119", "longitude": " -80.21318", "city": "Miramar", "fullState": "Florida"},
{"zip": "33024", "state": "FL", "latitude": " 26.023567", "longitude": " -80.23851", "city": "Pembroke Pines", "fullState": "Florida"},
{"zip": "33025", "state": "FL", "latitude": " 25.990494", "longitude": " -80.27326", "city": "Hollywood", "fullState": "Florida"},
{"zip": "33026", "state": "FL", "latitude": " 26.026700", "longitude": " -80.29443", "city": "Hollywood", "fullState": "Florida"},
{"zip": "33027", "state": "FL", "latitude": " 25.981409", "longitude": " -80.34491", "city": "Hollywood", "fullState": "Florida"},
{"zip": "33028", "state": "FL", "latitude": " 26.018418", "longitude": " -80.34798", "city": "Hollywood", "fullState": "Florida"},
{"zip": "33029", "state": "FL", "latitude": " 26.006373", "longitude": " -80.40212", "city": "Pembroke Pines", "fullState": "Florida"},
{"zip": "33030", "state": "FL", "latitude": " 25.479438", "longitude": " -80.48687", "city": "Homestead", "fullState": "Florida"},
{"zip": "33031", "state": "FL", "latitude": " 25.526214", "longitude": " -80.49632", "city": "Homestead", "fullState": "Florida"},
{"zip": "33032", "state": "FL", "latitude": " 25.524528", "longitude": " -80.40521", "city": "Princeton", "fullState": "Florida"},
{"zip": "33033", "state": "FL", "latitude": " 25.487988", "longitude": " -80.42692", "city": "Homestead", "fullState": "Florida"},
{"zip": "33034", "state": "FL", "latitude": " 25.431506", "longitude": " -80.51382", "city": "Florida City", "fullState": "Florida"},
{"zip": "33035", "state": "FL", "latitude": " 25.457913", "longitude": " -80.44781", "city": "Homestead", "fullState": "Florida"},
{"zip": "33036", "state": "FL", "latitude": " 24.918280", "longitude": " -80.63676", "city": "Islamorada", "fullState": "Florida"},
{"zip": "33037", "state": "FL", "latitude": " 25.137661", "longitude": " -80.40735", "city": "Ocean Reef", "fullState": "Florida"},
{"zip": "33040", "state": "FL", "latitude": " 24.567593", "longitude": " -81.75660", "city": "Naval Air Statio", "fullState": "Florida"},
{"zip": "33042", "state": "FL", "latitude": " 24.663121", "longitude": " -81.48694", "city": "Summerland Key", "fullState": "Florida"},
{"zip": "33043", "state": "FL", "latitude": " 24.675731", "longitude": " -81.34359", "city": "Big Pine Key", "fullState": "Florida"},
{"zip": "33050", "state": "FL", "latitude": " 24.731758", "longitude": " -81.02780", "city": "Marathon", "fullState": "Florida"},
{"zip": "33054", "state": "FL", "latitude": " 25.909039", "longitude": " -80.24945", "city": "Opa Locka", "fullState": "Florida"},
{"zip": "33055", "state": "FL", "latitude": " 25.944220", "longitude": " -80.27730", "city": "Carol City", "fullState": "Florida"},
{"zip": "33056", "state": "FL", "latitude": " 25.946754", "longitude": " -80.24962", "city": "Carol City", "fullState": "Florida"},
{"zip": "33060", "state": "FL", "latitude": " 26.232009", "longitude": " -80.12211", "city": "Pompano Beach", "fullState": "Florida"},
{"zip": "33062", "state": "FL", "latitude": " 26.236792", "longitude": " -80.09594", "city": "Pompano Beach", "fullState": "Florida"},
{"zip": "33063", "state": "FL", "latitude": " 26.251909", "longitude": " -80.21016", "city": "Margate", "fullState": "Florida"},
{"zip": "33064", "state": "FL", "latitude": " 26.279108", "longitude": " -80.11319", "city": "Lighthouse Point", "fullState": "Florida"},
{"zip": "33065", "state": "FL", "latitude": " 26.272608", "longitude": " -80.25589", "city": "Coral Springs", "fullState": "Florida"},
{"zip": "33066", "state": "FL", "latitude": " 26.253238", "longitude": " -80.17799", "city": "Margate", "fullState": "Florida"},
{"zip": "33067", "state": "FL", "latitude": " 26.300700", "longitude": " -80.22727", "city": "North Coral Spri", "fullState": "Florida"},
{"zip": "33068", "state": "FL", "latitude": " 26.216060", "longitude": " -80.21776", "city": "Pompano Beach", "fullState": "Florida"},
{"zip": "33069", "state": "FL", "latitude": " 26.228760", "longitude": " -80.15816", "city": "Pompano Beach", "fullState": "Florida"},
{"zip": "33070", "state": "FL", "latitude": " 25.006349", "longitude": " -80.53139", "city": "Tavernier", "fullState": "Florida"},
{"zip": "33071", "state": "FL", "latitude": " 26.242559", "longitude": " -80.26564", "city": "Pompano Beach", "fullState": "Florida"},
{"zip": "33073", "state": "FL", "latitude": " 26.305433", "longitude": " -80.18287", "city": "Pompano Beach", "fullState": "Florida"},
{"zip": "33076", "state": "FL", "latitude": " 26.301160", "longitude": " -80.27310", "city": "Pompano Beach", "fullState": "Florida"},
{"zip": "330HH", "state": "FL", "latitude": " 24.884737", "longitude": " -80.76713", "city": "", "fullState": "Florida"},
{"zip": "330XX", "state": "FL", "latitude": " 25.491437", "longitude": " -80.37050", "city": "", "fullState": "Florida"},
{"zip": "33109", "state": "FL", "latitude": " 25.759474", "longitude": " -80.13907", "city": "Miami Beach", "fullState": "Florida"},
{"zip": "33122", "state": "FL", "latitude": " 25.799962", "longitude": " -80.31775", "city": "Miami", "fullState": "Florida"},
{"zip": "33125", "state": "FL", "latitude": " 25.782176", "longitude": " -80.23607", "city": "Miami", "fullState": "Florida"},
{"zip": "33126", "state": "FL", "latitude": " 25.777977", "longitude": " -80.29718", "city": "Miami", "fullState": "Florida"},
{"zip": "33127", "state": "FL", "latitude": " 25.813808", "longitude": " -80.20580", "city": "Miami", "fullState": "Florida"},
{"zip": "33128", "state": "FL", "latitude": " 25.777143", "longitude": " -80.20225", "city": "Miami", "fullState": "Florida"},
{"zip": "33129", "state": "FL", "latitude": " 25.757227", "longitude": " -80.20656", "city": "Miami", "fullState": "Florida"},
{"zip": "33130", "state": "FL", "latitude": " 25.768277", "longitude": " -80.20339", "city": "Miami", "fullState": "Florida"},
{"zip": "33131", "state": "FL", "latitude": " 25.767368", "longitude": " -80.18930", "city": "Miami", "fullState": "Florida"},
{"zip": "33132", "state": "FL", "latitude": " 25.784326", "longitude": " -80.18753", "city": "Miami", "fullState": "Florida"},
{"zip": "33133", "state": "FL", "latitude": " 25.730678", "longitude": " -80.24410", "city": "Coral Gables", "fullState": "Florida"},
{"zip": "33134", "state": "FL", "latitude": " 25.753927", "longitude": " -80.27034", "city": "Coral Gables", "fullState": "Florida"},
{"zip": "33135", "state": "FL", "latitude": " 25.766577", "longitude": " -80.23576", "city": "Miami", "fullState": "Florida"},
{"zip": "33136", "state": "FL", "latitude": " 25.786326", "longitude": " -80.20290", "city": "Miami", "fullState": "Florida"},
{"zip": "33137", "state": "FL", "latitude": " 25.817325", "longitude": " -80.19046", "city": "Miami", "fullState": "Florida"},
{"zip": "33138", "state": "FL", "latitude": " 25.853184", "longitude": " -80.18622", "city": "Miami Shores", "fullState": "Florida"},
{"zip": "33139", "state": "FL", "latitude": " 25.784276", "longitude": " -80.14126", "city": "Carl Fisher", "fullState": "Florida"},
{"zip": "33140", "state": "FL", "latitude": " 25.814225", "longitude": " -80.13085", "city": "Miami", "fullState": "Florida"},
{"zip": "33141", "state": "FL", "latitude": " 25.858573", "longitude": " -80.12973", "city": "North Bay Villag", "fullState": "Florida"},
{"zip": "33142", "state": "FL", "latitude": " 25.812625", "longitude": " -80.23690", "city": "Miami", "fullState": "Florida"},
{"zip": "33143", "state": "FL", "latitude": " 25.702929", "longitude": " -80.29642", "city": "South Miami", "fullState": "Florida"},
{"zip": "33144", "state": "FL", "latitude": " 25.762260", "longitude": " -80.30839", "city": "Miami", "fullState": "Florida"},
{"zip": "33145", "state": "FL", "latitude": " 25.753177", "longitude": " -80.23327", "city": "Coral Gables", "fullState": "Florida"},
{"zip": "33146", "state": "FL", "latitude": " 25.720728", "longitude": " -80.27255", "city": "Coral Gables", "fullState": "Florida"},
{"zip": "33147", "state": "FL", "latitude": " 25.850124", "longitude": " -80.23773", "city": "Miami", "fullState": "Florida"},
{"zip": "33149", "state": "FL", "latitude": " 25.700966", "longitude": " -80.16195", "city": "Key Biscayne", "fullState": "Florida"},
{"zip": "33150", "state": "FL", "latitude": " 25.851974", "longitude": " -80.20566", "city": "Miami", "fullState": "Florida"},
{"zip": "33154", "state": "FL", "latitude": " 25.881391", "longitude": " -80.12760", "city": "Bal Harbour", "fullState": "Florida"},
{"zip": "33155", "state": "FL", "latitude": " 25.739011", "longitude": " -80.30685", "city": "Miami", "fullState": "Florida"},
{"zip": "33156", "state": "FL", "latitude": " 25.665580", "longitude": " -80.30688", "city": "Kendall", "fullState": "Florida"},
{"zip": "33157", "state": "FL", "latitude": " 25.606583", "longitude": " -80.34859", "city": "Perrine", "fullState": "Florida"},
{"zip": "33158", "state": "FL", "latitude": " 25.637132", "longitude": " -80.31641", "city": "Miami", "fullState": "Florida"},
{"zip": "33160", "state": "FL", "latitude": " 25.941535", "longitude": " -80.13861", "city": "North Miami Beac", "fullState": "Florida"},
{"zip": "33161", "state": "FL", "latitude": " 25.893372", "longitude": " -80.18164", "city": "North Miami", "fullState": "Florida"},
{"zip": "33162", "state": "FL", "latitude": " 25.929571", "longitude": " -80.17839", "city": "North Miami Beac", "fullState": "Florida"},
{"zip": "33165", "state": "FL", "latitude": " 25.734828", "longitude": " -80.35830", "city": "Olympia Heights", "fullState": "Florida"},
{"zip": "33166", "state": "FL", "latitude": " 25.824725", "longitude": " -80.30476", "city": "Miami Springs", "fullState": "Florida"},
{"zip": "33167", "state": "FL", "latitude": " 25.885739", "longitude": " -80.23264", "city": "Miami", "fullState": "Florida"},
{"zip": "33168", "state": "FL", "latitude": " 25.892185", "longitude": " -80.21032", "city": "Miami", "fullState": "Florida"},
{"zip": "33169", "state": "FL", "latitude": " 25.942670", "longitude": " -80.21276", "city": "Miami", "fullState": "Florida"},
{"zip": "33170", "state": "FL", "latitude": " 25.559785", "longitude": " -80.41664", "city": "Quail Heights", "fullState": "Florida"},
{"zip": "33172", "state": "FL", "latitude": " 25.786634", "longitude": " -80.36151", "city": "Miami", "fullState": "Florida"},
{"zip": "33173", "state": "FL", "latitude": " 25.702429", "longitude": " -80.36184", "city": "Miami", "fullState": "Florida"},
{"zip": "33174", "state": "FL", "latitude": " 25.763044", "longitude": " -80.35919", "city": "Miami", "fullState": "Florida"},
{"zip": "33175", "state": "FL", "latitude": " 25.733204", "longitude": " -80.41197", "city": "Olympia Heights", "fullState": "Florida"},
{"zip": "33176", "state": "FL", "latitude": " 25.653431", "longitude": " -80.35999", "city": "Miami", "fullState": "Florida"},
{"zip": "33177", "state": "FL", "latitude": " 25.595983", "longitude": " -80.40234", "city": "Quail Heights", "fullState": "Florida"},
{"zip": "33178", "state": "FL", "latitude": " 25.837696", "longitude": " -80.36947", "city": "Miami", "fullState": "Florida"},
{"zip": "33179", "state": "FL", "latitude": " 25.958720", "longitude": " -80.17941", "city": "Miami", "fullState": "Florida"},
{"zip": "33180", "state": "FL", "latitude": " 25.962069", "longitude": " -80.14465", "city": "Ojus", "fullState": "Florida"},
{"zip": "33181", "state": "FL", "latitude": " 25.897372", "longitude": " -80.16048", "city": "North Miami Beac", "fullState": "Florida"},
{"zip": "33182", "state": "FL", "latitude": " 25.781127", "longitude": " -80.40467", "city": "Miami", "fullState": "Florida"},
{"zip": "33183", "state": "FL", "latitude": " 25.699968", "longitude": " -80.40811", "city": "Miami", "fullState": "Florida"},
{"zip": "33184", "state": "FL", "latitude": " 25.759184", "longitude": " -80.40773", "city": "Miami", "fullState": "Florida"},
{"zip": "33185", "state": "FL", "latitude": " 25.723173", "longitude": " -80.43995", "city": "Olympia Heights", "fullState": "Florida"},
{"zip": "33186", "state": "FL", "latitude": " 25.662292", "longitude": " -80.40947", "city": "Miami", "fullState": "Florida"},
{"zip": "33187", "state": "FL", "latitude": " 25.596234", "longitude": " -80.47650", "city": "Quail Heights", "fullState": "Florida"},
{"zip": "33189", "state": "FL", "latitude": " 25.574834", "longitude": " -80.34670", "city": "Quail Heights", "fullState": "Florida"},
{"zip": "33190", "state": "FL", "latitude": " 25.560710", "longitude": " -80.34940", "city": "Quail Heights", "fullState": "Florida"},
{"zip": "33193", "state": "FL", "latitude": " 25.700280", "longitude": " -80.44721", "city": "Miami", "fullState": "Florida"},
{"zip": "33194", "state": "FL", "latitude": " 25.745549", "longitude": " -80.46510", "city": "Miami", "fullState": "Florida"},
{"zip": "33196", "state": "FL", "latitude": " 25.650232", "longitude": " -80.45925", "city": "Miami", "fullState": "Florida"},
{"zip": "331HH", "state": "FL", "latitude": " 25.808525", "longitude": " -80.17311", "city": "", "fullState": "Florida"},
{"zip": "33301", "state": "FL", "latitude": " 26.121114", "longitude": " -80.13187", "city": "Fort Lauderdale", "fullState": "Florida"},
{"zip": "33304", "state": "FL", "latitude": " 26.137693", "longitude": " -80.12646", "city": "Oakland Park", "fullState": "Florida"},
{"zip": "33305", "state": "FL", "latitude": " 26.153728", "longitude": " -80.12606", "city": "Oakland Park", "fullState": "Florida"},
{"zip": "33306", "state": "FL", "latitude": " 26.165212", "longitude": " -80.11379", "city": "Oakland Park", "fullState": "Florida"},
{"zip": "33308", "state": "FL", "latitude": " 26.191111", "longitude": " -80.10846", "city": "Oakland Park", "fullState": "Florida"},
{"zip": "33309", "state": "FL", "latitude": " 26.185461", "longitude": " -80.17218", "city": "Fort Lauderdale", "fullState": "Florida"},
{"zip": "33311", "state": "FL", "latitude": " 26.138830", "longitude": " -80.16865", "city": "Fort Lauderdale", "fullState": "Florida"},
{"zip": "33312", "state": "FL", "latitude": " 26.094665", "longitude": " -80.17987", "city": "Fort Lauderdale", "fullState": "Florida"},
{"zip": "33313", "state": "FL", "latitude": " 26.148613", "longitude": " -80.22446", "city": "City Of Sunrise", "fullState": "Florida"},
{"zip": "33314", "state": "FL", "latitude": " 26.067966", "longitude": " -80.22016", "city": "Davie", "fullState": "Florida"},
{"zip": "33315", "state": "FL", "latitude": " 26.094385", "longitude": " -80.15422", "city": "Fort Lauderdale", "fullState": "Florida"},
{"zip": "33316", "state": "FL", "latitude": " 26.101114", "longitude": " -80.12931", "city": "Fort Lauderdale", "fullState": "Florida"},
{"zip": "33317", "state": "FL", "latitude": " 26.113664", "longitude": " -80.22376", "city": "Plantation", "fullState": "Florida"},
{"zip": "33319", "state": "FL", "latitude": " 26.183628", "longitude": " -80.22122", "city": "Tamarac", "fullState": "Florida"},
{"zip": "33321", "state": "FL", "latitude": " 26.211122", "longitude": " -80.26310", "city": "Tamarac", "fullState": "Florida"},
{"zip": "33322", "state": "FL", "latitude": " 26.150863", "longitude": " -80.27284", "city": "Sunrise", "fullState": "Florida"},
{"zip": "33323", "state": "FL", "latitude": " 26.156854", "longitude": " -80.31408", "city": "Sunrise", "fullState": "Florida"},
{"zip": "33324", "state": "FL", "latitude": " 26.110631", "longitude": " -80.27469", "city": "Plantation", "fullState": "Florida"},
{"zip": "33325", "state": "FL", "latitude": " 26.112924", "longitude": " -80.32097", "city": "Davie", "fullState": "Florida"},
{"zip": "33326", "state": "FL", "latitude": " 26.112366", "longitude": " -80.37697", "city": "Davie", "fullState": "Florida"},
{"zip": "33327", "state": "FL", "latitude": " 26.120134", "longitude": " -80.41441", "city": "Fort Lauderdale", "fullState": "Florida"},
{"zip": "33328", "state": "FL", "latitude": " 26.062016", "longitude": " -80.27202", "city": "Davie", "fullState": "Florida"},
{"zip": "33330", "state": "FL", "latitude": " 26.054790", "longitude": " -80.31581", "city": "Davie", "fullState": "Florida"},
{"zip": "33331", "state": "FL", "latitude": " 26.056111", "longitude": " -80.36373", "city": "Davie", "fullState": "Florida"},
{"zip": "33332", "state": "FL", "latitude": " 26.049367", "longitude": " -80.40885", "city": "Davie", "fullState": "Florida"},
{"zip": "33334", "state": "FL", "latitude": " 26.182161", "longitude": " -80.13341", "city": "Oakland Park", "fullState": "Florida"},
{"zip": "33351", "state": "FL", "latitude": " 26.179495", "longitude": " -80.27183", "city": "Tamarac", "fullState": "Florida"},
{"zip": "33388", "state": "FL", "latitude": " 26.120714", "longitude": " -80.25326", "city": "Fort Lauderdale", "fullState": "Florida"},
{"zip": "33394", "state": "FL", "latitude": " 26.121364", "longitude": " -80.13916", "city": "Fort Lauderdale", "fullState": "Florida"},
{"zip": "333HH", "state": "FL", "latitude": " 26.141750", "longitude": " -80.10915", "city": "", "fullState": "Florida"},
{"zip": "333XX", "state": "FL", "latitude": " 25.906766", "longitude": " -80.71368", "city": "", "fullState": "Florida"},
{"zip": "33401", "state": "FL", "latitude": " 26.711192", "longitude": " -80.06043", "city": "West Palm Beach", "fullState": "Florida"},
{"zip": "33403", "state": "FL", "latitude": " 26.802139", "longitude": " -80.07032", "city": "Lake Park", "fullState": "Florida"},
{"zip": "33404", "state": "FL", "latitude": " 26.782114", "longitude": " -80.06528", "city": "Riviera Beach", "fullState": "Florida"},
{"zip": "33405", "state": "FL", "latitude": " 26.669744", "longitude": " -80.05850", "city": "West Palm Beach", "fullState": "Florida"},
{"zip": "33406", "state": "FL", "latitude": " 26.659294", "longitude": " -80.09118", "city": "Glen Ridge", "fullState": "Florida"},
{"zip": "33407", "state": "FL", "latitude": " 26.750991", "longitude": " -80.07296", "city": "West Palm Beach", "fullState": "Florida"},
{"zip": "33408", "state": "FL", "latitude": " 26.840684", "longitude": " -80.06312", "city": "North Palm Beach", "fullState": "Florida"},
{"zip": "33409", "state": "FL", "latitude": " 26.709575", "longitude": " -80.09443", "city": "Haverhill", "fullState": "Florida"},
{"zip": "33410", "state": "FL", "latitude": " 26.839588", "longitude": " -80.08824", "city": "Palm Beach Garde", "fullState": "Florida"},
{"zip": "33411", "state": "FL", "latitude": " 26.719596", "longitude": " -80.22077", "city": "Royal Palm Beach", "fullState": "Florida"},
{"zip": "33412", "state": "FL", "latitude": " 26.795367", "longitude": " -80.24044", "city": "West Palm Beach", "fullState": "Florida"},
{"zip": "33413", "state": "FL", "latitude": " 26.668944", "longitude": " -80.14721", "city": "West Palm Beach", "fullState": "Florida"},
{"zip": "33414", "state": "FL", "latitude": " 26.656710", "longitude": " -80.25377", "city": "West Palm Beach", "fullState": "Florida"},
{"zip": "33415", "state": "FL", "latitude": " 26.659344", "longitude": " -80.12704", "city": "Haverhill", "fullState": "Florida"},
{"zip": "33417", "state": "FL", "latitude": " 26.715596", "longitude": " -80.12620", "city": "Haverhill", "fullState": "Florida"},
{"zip": "33418", "state": "FL", "latitude": " 26.877984", "longitude": " -80.16052", "city": "Palm Beach Garde", "fullState": "Florida"},
{"zip": "33426", "state": "FL", "latitude": " 26.529581", "longitude": " -80.08226", "city": "Boynton Beach", "fullState": "Florida"},
{"zip": "33428", "state": "FL", "latitude": " 26.348354", "longitude": " -80.21841", "city": "Boca Raton", "fullState": "Florida"},
{"zip": "33430", "state": "FL", "latitude": " 26.685125", "longitude": " -80.66279", "city": "Belle Glade", "fullState": "Florida"},
{"zip": "33431", "state": "FL", "latitude": " 26.381304", "longitude": " -80.09623", "city": "Boca Raton", "fullState": "Florida"},
{"zip": "33432", "state": "FL", "latitude": " 26.347305", "longitude": " -80.08552", "city": "Boca Raton", "fullState": "Florida"},
{"zip": "33433", "state": "FL", "latitude": " 26.347711", "longitude": " -80.15648", "city": "Boca Raton", "fullState": "Florida"},
{"zip": "33434", "state": "FL", "latitude": " 26.382408", "longitude": " -80.16699", "city": "Boca Raton", "fullState": "Florida"},
{"zip": "33435", "state": "FL", "latitude": " 26.524549", "longitude": " -80.06321", "city": "Briny Breezes", "fullState": "Florida"},
{"zip": "33436", "state": "FL", "latitude": " 26.530144", "longitude": " -80.10461", "city": "Village Of Golf", "fullState": "Florida"},
{"zip": "33437", "state": "FL", "latitude": " 26.522249", "longitude": " -80.15031", "city": "Boynton Beach", "fullState": "Florida"},
{"zip": "33438", "state": "FL", "latitude": " 26.900359", "longitude": " -80.60368", "city": "Canal Point", "fullState": "Florida"},
{"zip": "33440", "state": "FL", "latitude": " 26.714088", "longitude": " -80.99730", "city": "Clewiston", "fullState": "Florida"},
{"zip": "33441", "state": "FL", "latitude": " 26.309657", "longitude": " -80.09541", "city": "Deerfield Beach", "fullState": "Florida"},
{"zip": "33442", "state": "FL", "latitude": " 26.309757", "longitude": " -80.14548", "city": "Deerfield Beach", "fullState": "Florida"},
{"zip": "33444", "state": "FL", "latitude": " 26.460951", "longitude": " -80.07891", "city": "Delray Beach", "fullState": "Florida"},
{"zip": "33445", "state": "FL", "latitude": " 26.459571", "longitude": " -80.10582", "city": "Delray Beach", "fullState": "Florida"},
{"zip": "33446", "state": "FL", "latitude": " 26.452473", "longitude": " -80.16509", "city": "Delray Beach", "fullState": "Florida"},
{"zip": "33455", "state": "FL", "latitude": " 27.076516", "longitude": " -80.14697", "city": "Hobe Sound", "fullState": "Florida"},
{"zip": "33458", "state": "FL", "latitude": " 26.928035", "longitude": " -80.11803", "city": "Jupiter", "fullState": "Florida"},
{"zip": "33460", "state": "FL", "latitude": " 26.619695", "longitude": " -80.05676", "city": "Lake Worth", "fullState": "Florida"},
{"zip": "33461", "state": "FL", "latitude": " 26.621145", "longitude": " -80.08976", "city": "Lake Worth", "fullState": "Florida"},
{"zip": "33462", "state": "FL", "latitude": " 26.579714", "longitude": " -80.07437", "city": "Lantana", "fullState": "Florida"},
{"zip": "33463", "state": "FL", "latitude": " 26.609226", "longitude": " -80.12874", "city": "Greenacres", "fullState": "Florida"},
{"zip": "33467", "state": "FL", "latitude": " 26.601937", "longitude": " -80.17921", "city": "Lake Worth", "fullState": "Florida"},
{"zip": "33469", "state": "FL", "latitude": " 26.968795", "longitude": " -80.09940", "city": "Tequesta", "fullState": "Florida"},
{"zip": "33470", "state": "FL", "latitude": " 26.751094", "longitude": " -80.30156", "city": "Loxahatchee", "fullState": "Florida"},
{"zip": "33471", "state": "FL", "latitude": " 26.844989", "longitude": " -81.11050", "city": "Moore Haven", "fullState": "Florida"},
{"zip": "33476", "state": "FL", "latitude": " 26.817786", "longitude": " -80.65425", "city": "Pahokee", "fullState": "Florida"},
{"zip": "33477", "state": "FL", "latitude": " 26.924709", "longitude": " -80.08119", "city": "Jupiter", "fullState": "Florida"},
{"zip": "33478", "state": "FL", "latitude": " 26.925835", "longitude": " -80.21526", "city": "Jupiter", "fullState": "Florida"},
{"zip": "33480", "state": "FL", "latitude": " 26.715067", "longitude": " -80.03937", "city": "Palm Beach", "fullState": "Florida"},
{"zip": "33483", "state": "FL", "latitude": " 26.465051", "longitude": " -80.06517", "city": "Delray Beach", "fullState": "Florida"},
{"zip": "33484", "state": "FL", "latitude": " 26.458152", "longitude": " -80.13560", "city": "Delray Beach", "fullState": "Florida"},
{"zip": "33486", "state": "FL", "latitude": " 26.344955", "longitude": " -80.11226", "city": "Boca Raton", "fullState": "Florida"},
{"zip": "33487", "state": "FL", "latitude": " 26.409953", "longitude": " -80.08841", "city": "Highland Beach", "fullState": "Florida"},
{"zip": "33493", "state": "FL", "latitude": " 26.663097", "longitude": " -80.71827", "city": "South Bay", "fullState": "Florida"},
{"zip": "33496", "state": "FL", "latitude": " 26.404353", "longitude": " -80.16270", "city": "Boca Raton", "fullState": "Florida"},
{"zip": "33498", "state": "FL", "latitude": " 26.391346", "longitude": " -80.21824", "city": "Boca Raton", "fullState": "Florida"},
{"zip": "334HH", "state": "FL", "latitude": " 26.738674", "longitude": " -80.07846", "city": "", "fullState": "Florida"},
{"zip": "334XX", "state": "FL", "latitude": " 26.623112", "longitude": " -80.61602", "city": "", "fullState": "Florida"},
{"zip": "33510", "state": "FL", "latitude": " 27.953801", "longitude": " -82.29748", "city": "Brandon", "fullState": "Florida"},
{"zip": "33511", "state": "FL", "latitude": " 27.911201", "longitude": " -82.29480", "city": "Brandon", "fullState": "Florida"},
{"zip": "33513", "state": "FL", "latitude": " 28.663132", "longitude": " -82.14042", "city": "Bushnell", "fullState": "Florida"},
{"zip": "33514", "state": "FL", "latitude": " 28.654412", "longitude": " -81.98278", "city": "Center Hill", "fullState": "Florida"},
{"zip": "33521", "state": "FL", "latitude": " 28.805331", "longitude": " -82.07371", "city": "Coleman", "fullState": "Florida"},
{"zip": "33523", "state": "FL", "latitude": " 28.433019", "longitude": " -82.19736", "city": "Dade City", "fullState": "Florida"},
{"zip": "33525", "state": "FL", "latitude": " 28.346914", "longitude": " -82.20293", "city": "Ridge Manor", "fullState": "Florida"},
{"zip": "33527", "state": "FL", "latitude": " 27.987060", "longitude": " -82.21357", "city": "Dover", "fullState": "Florida"},
{"zip": "33534", "state": "FL", "latitude": " 27.837894", "longitude": " -82.37407", "city": "Gibsonton", "fullState": "Florida"},
{"zip": "33538", "state": "FL", "latitude": " 28.835261", "longitude": " -82.14818", "city": "Lake Panasoffkee", "fullState": "Florida"},
{"zip": "33540", "state": "FL", "latitude": " 28.235313", "longitude": " -82.16868", "city": "Zephyrhills", "fullState": "Florida"},
{"zip": "33541", "state": "FL", "latitude": " 28.234624", "longitude": " -82.20022", "city": "Zephyrhills", "fullState": "Florida"},
{"zip": "33543", "state": "FL", "latitude": " 28.187356", "longitude": " -82.31601", "city": "Wesley Chapel", "fullState": "Florida"},
{"zip": "33544", "state": "FL", "latitude": " 28.266580", "longitude": " -82.34222", "city": "Zephyrhills", "fullState": "Florida"},
{"zip": "33547", "state": "FL", "latitude": " 27.788498", "longitude": " -82.15080", "city": "Lithia", "fullState": "Florida"},
{"zip": "33549", "state": "FL", "latitude": " 28.142694", "longitude": " -82.46629", "city": "Lutz", "fullState": "Florida"},
{"zip": "33556", "state": "FL", "latitude": " 28.143377", "longitude": " -82.59054", "city": "Odessa", "fullState": "Florida"},
{"zip": "33565", "state": "FL", "latitude": " 28.065552", "longitude": " -82.14506", "city": "Plant City", "fullState": "Florida"},
{"zip": "33566", "state": "FL", "latitude": " 28.013755", "longitude": " -82.11685", "city": "Plant City", "fullState": "Florida"},
{"zip": "33567", "state": "FL", "latitude": " 27.982949", "longitude": " -82.14539", "city": "Plant City", "fullState": "Florida"},
{"zip": "33569", "state": "FL", "latitude": " 27.847802", "longitude": " -82.31799", "city": "Riverview", "fullState": "Florida"},
{"zip": "33570", "state": "FL", "latitude": " 27.703801", "longitude": " -82.44385", "city": "Ruskin", "fullState": "Florida"},
{"zip": "33572", "state": "FL", "latitude": " 27.771988", "longitude": " -82.41078", "city": "Apollo Beach", "fullState": "Florida"},
{"zip": "33573", "state": "FL", "latitude": " 27.713353", "longitude": " -82.35965", "city": "Sun City Center", "fullState": "Florida"},
{"zip": "33576", "state": "FL", "latitude": " 28.331979", "longitude": " -82.28877", "city": "San Antonio", "fullState": "Florida"},
{"zip": "33584", "state": "FL", "latitude": " 27.987925", "longitude": " -82.28819", "city": "Seffner", "fullState": "Florida"},
{"zip": "33585", "state": "FL", "latitude": " 28.754347", "longitude": " -82.06126", "city": "Sumterville", "fullState": "Florida"},
{"zip": "33592", "state": "FL", "latitude": " 28.077843", "longitude": " -82.29837", "city": "Thonotosassa", "fullState": "Florida"},
{"zip": "33594", "state": "FL", "latitude": " 27.911226", "longitude": " -82.24508", "city": "Valrico", "fullState": "Florida"},
{"zip": "33597", "state": "FL", "latitude": " 28.568393", "longitude": " -82.15053", "city": "Ridge Manor Esta", "fullState": "Florida"},
{"zip": "33598", "state": "FL", "latitude": " 27.693924", "longitude": " -82.32758", "city": "Wimauma", "fullState": "Florida"},
{"zip": "335HH", "state": "FL", "latitude": " 27.883997", "longitude": " -82.30849", "city": "", "fullState": "Florida"},
{"zip": "335XX", "state": "FL", "latitude": " 28.459783", "longitude": " -82.01694", "city": "", "fullState": "Florida"},
{"zip": "33602", "state": "FL", "latitude": " 27.956149", "longitude": " -82.45723", "city": "Tampa", "fullState": "Florida"},
{"zip": "33603", "state": "FL", "latitude": " 27.984198", "longitude": " -82.46270", "city": "Tampa", "fullState": "Florida"},
{"zip": "33604", "state": "FL", "latitude": " 28.016846", "longitude": " -82.45660", "city": "Tampa", "fullState": "Florida"},
{"zip": "33605", "state": "FL", "latitude": " 27.963849", "longitude": " -82.43193", "city": "Tampa", "fullState": "Florida"},
{"zip": "33606", "state": "FL", "latitude": " 27.936799", "longitude": " -82.46911", "city": "Tampa", "fullState": "Florida"},
{"zip": "33607", "state": "FL", "latitude": " 27.963798", "longitude": " -82.49537", "city": "Tampa", "fullState": "Florida"},
{"zip": "33609", "state": "FL", "latitude": " 27.943549", "longitude": " -82.50656", "city": "Tampa", "fullState": "Florida"},
{"zip": "33610", "state": "FL", "latitude": " 27.993498", "longitude": " -82.40914", "city": "Tampa", "fullState": "Florida"},
{"zip": "33611", "state": "FL", "latitude": " 27.891151", "longitude": " -82.50581", "city": "Tampa", "fullState": "Florida"},
{"zip": "33612", "state": "FL", "latitude": " 28.048595", "longitude": " -82.45171", "city": "Tampa", "fullState": "Florida"},
{"zip": "33613", "state": "FL", "latitude": " 28.077994", "longitude": " -82.44989", "city": "Tampa", "fullState": "Florida"},
{"zip": "33614", "state": "FL", "latitude": " 28.006247", "longitude": " -82.50632", "city": "Tampa", "fullState": "Florida"},
{"zip": "33615", "state": "FL", "latitude": " 28.005446", "longitude": " -82.57776", "city": "Tampa", "fullState": "Florida"},
{"zip": "33616", "state": "FL", "latitude": " 27.869251", "longitude": " -82.52226", "city": "Tampa", "fullState": "Florida"},
{"zip": "33617", "state": "FL", "latitude": " 28.039096", "longitude": " -82.39371", "city": "Tampa", "fullState": "Florida"},
{"zip": "33618", "state": "FL", "latitude": " 28.071502", "longitude": " -82.49392", "city": "Carrollwood", "fullState": "Florida"},
{"zip": "33619", "state": "FL", "latitude": " 27.946050", "longitude": " -82.37525", "city": "Tampa", "fullState": "Florida"},
{"zip": "33620", "state": "FL", "latitude": " 28.062961", "longitude": " -82.41314", "city": "Tampa", "fullState": "Florida"},
{"zip": "33621", "state": "FL", "latitude": " 27.855078", "longitude": " -82.52464", "city": "Tampa", "fullState": "Florida"},
{"zip": "33624", "state": "FL", "latitude": " 28.075060", "longitude": " -82.52355", "city": "Carrollwood", "fullState": "Florida"},
{"zip": "33625", "state": "FL", "latitude": " 28.069755", "longitude": " -82.55734", "city": "Tampa", "fullState": "Florida"},
{"zip": "33626", "state": "FL", "latitude": " 28.052799", "longitude": " -82.61135", "city": "Tampa", "fullState": "Florida"},
{"zip": "33629", "state": "FL", "latitude": " 27.920850", "longitude": " -82.50916", "city": "Tampa", "fullState": "Florida"},
{"zip": "33634", "state": "FL", "latitude": " 28.005497", "longitude": " -82.54936", "city": "Tampa", "fullState": "Florida"},
{"zip": "33635", "state": "FL", "latitude": " 28.031088", "longitude": " -82.60593", "city": "Tampa", "fullState": "Florida"},
{"zip": "33637", "state": "FL", "latitude": " 28.038324", "longitude": " -82.36289", "city": "Tampa", "fullState": "Florida"},
{"zip": "33647", "state": "FL", "latitude": " 28.127973", "longitude": " -82.36123", "city": "Tampa", "fullState": "Florida"},
{"zip": "336HH", "state": "FL", "latitude": " 27.966575", "longitude": " -82.47474", "city": "", "fullState": "Florida"},
{"zip": "33701", "state": "FL", "latitude": " 27.770955", "longitude": " -82.63931", "city": "Saint Petersburg", "fullState": "Florida"},
{"zip": "33702", "state": "FL", "latitude": " 27.843052", "longitude": " -82.64490", "city": "Saint Petersburg", "fullState": "Florida"},
{"zip": "33703", "state": "FL", "latitude": " 27.816977", "longitude": " -82.62795", "city": "Saint Petersburg", "fullState": "Florida"},
{"zip": "33704", "state": "FL", "latitude": " 27.796454", "longitude": " -82.63751", "city": "Saint Petersburg", "fullState": "Florida"},
{"zip": "33705", "state": "FL", "latitude": " 27.741306", "longitude": " -82.64349", "city": "Saint Petersburg", "fullState": "Florida"},
{"zip": "33706", "state": "FL", "latitude": " 27.741505", "longitude": " -82.75179", "city": "Saint Petersburg", "fullState": "Florida"},
{"zip": "33707", "state": "FL", "latitude": " 27.756505", "longitude": " -82.71764", "city": "Saint Petersburg", "fullState": "Florida"},
{"zip": "33708", "state": "FL", "latitude": " 27.811626", "longitude": " -82.79321", "city": "Madeira Beach", "fullState": "Florida"},
{"zip": "33709", "state": "FL", "latitude": " 27.815953", "longitude": " -82.72865", "city": "Kenneth City", "fullState": "Florida"},
{"zip": "33710", "state": "FL", "latitude": " 27.788637", "longitude": " -82.72244", "city": "Saint Petersburg", "fullState": "Florida"},
{"zip": "33711", "state": "FL", "latitude": " 27.750655", "longitude": " -82.68820", "city": "Saint Petersburg", "fullState": "Florida"},
{"zip": "33712", "state": "FL", "latitude": " 27.745355", "longitude": " -82.66572", "city": "Saint Petersburg", "fullState": "Florida"},
{"zip": "33713", "state": "FL", "latitude": " 27.787904", "longitude": " -82.68039", "city": "Saint Petersburg", "fullState": "Florida"},
{"zip": "33714", "state": "FL", "latitude": " 27.817323", "longitude": " -82.67612", "city": "Saint Petersburg", "fullState": "Florida"},
{"zip": "33715", "state": "FL", "latitude": " 27.683010", "longitude": " -82.72096", "city": "Tierra Verde", "fullState": "Florida"},
{"zip": "33716", "state": "FL", "latitude": " 27.874324", "longitude": " -82.64515", "city": "Saint Petersburg", "fullState": "Florida"},
{"zip": "33755", "state": "FL", "latitude": " 27.979114", "longitude": " -82.78166", "city": "Clearwater", "fullState": "Florida"},
{"zip": "33756", "state": "FL", "latitude": " 27.944631", "longitude": " -82.78702", "city": "Clearwater", "fullState": "Florida"},
{"zip": "33759", "state": "FL", "latitude": " 27.980297", "longitude": " -82.71645", "city": "Clearwater", "fullState": "Florida"},
{"zip": "33760", "state": "FL", "latitude": " 27.908020", "longitude": " -82.71365", "city": "Clearwater", "fullState": "Florida"},
{"zip": "33761", "state": "FL", "latitude": " 28.032827", "longitude": " -82.72596", "city": "Clearwater", "fullState": "Florida"},
{"zip": "33762", "state": "FL", "latitude": " 27.883118", "longitude": " -82.68389", "city": "Clearwater", "fullState": "Florida"},
{"zip": "33763", "state": "FL", "latitude": " 28.001394", "longitude": " -82.74549", "city": "Clearwater", "fullState": "Florida"},
{"zip": "33764", "state": "FL", "latitude": " 27.932797", "longitude": " -82.74115", "city": "Clearwater", "fullState": "Florida"},
{"zip": "33765", "state": "FL", "latitude": " 27.971362", "longitude": " -82.74482", "city": "Clearwater", "fullState": "Florida"},
{"zip": "33767", "state": "FL", "latitude": " 27.982722", "longitude": " -82.82504", "city": "Clearwater Beach", "fullState": "Florida"},
{"zip": "33770", "state": "FL", "latitude": " 27.916149", "longitude": " -82.80122", "city": "Largo", "fullState": "Florida"},
{"zip": "33771", "state": "FL", "latitude": " 27.906088", "longitude": " -82.75530", "city": "Largo", "fullState": "Florida"},
{"zip": "33772", "state": "FL", "latitude": " 27.843349", "longitude": " -82.79307", "city": "Seminole", "fullState": "Florida"},
{"zip": "33773", "state": "FL", "latitude": " 27.883188", "longitude": " -82.75633", "city": "Largo", "fullState": "Florida"},
{"zip": "33774", "state": "FL", "latitude": " 27.885283", "longitude": " -82.82607", "city": "Largo", "fullState": "Florida"},
{"zip": "33776", "state": "FL", "latitude": " 27.853151", "longitude": " -82.82712", "city": "Seminole", "fullState": "Florida"},
{"zip": "33777", "state": "FL", "latitude": " 27.851052", "longitude": " -82.76111", "city": "Seminole", "fullState": "Florida"},
{"zip": "33778", "state": "FL", "latitude": " 27.885344", "longitude": " -82.79594", "city": "Largo", "fullState": "Florida"},
{"zip": "33781", "state": "FL", "latitude": " 27.839802", "longitude": " -82.71094", "city": "Pinellas Park", "fullState": "Florida"},
{"zip": "33782", "state": "FL", "latitude": " 27.861925", "longitude": " -82.71145", "city": "Pinellas Park", "fullState": "Florida"},
{"zip": "33785", "state": "FL", "latitude": " 27.887923", "longitude": " -82.84703", "city": "Indian Rocks Beach", "fullState": "Florida"},
{"zip": "33786", "state": "FL", "latitude": " 27.924748", "longitude": " -82.83937", "city": "Belleair Beach", "fullState": "Florida"},
{"zip": "337HH", "state": "FL", "latitude": " 27.826158", "longitude": " -82.75515", "city": "", "fullState": "Florida"},
{"zip": "33801", "state": "FL", "latitude": " 28.041198", "longitude": " -81.92392", "city": "Lakeland", "fullState": "Florida"},
{"zip": "33803", "state": "FL", "latitude": " 28.015032", "longitude": " -81.95206", "city": "Lakeland", "fullState": "Florida"},
{"zip": "33805", "state": "FL", "latitude": " 28.071564", "longitude": " -81.95802", "city": "Lakeland", "fullState": "Florida"},
{"zip": "33809", "state": "FL", "latitude": " 28.128494", "longitude": " -81.95625", "city": "Lakeland", "fullState": "Florida"},
{"zip": "33810", "state": "FL", "latitude": " 28.106787", "longitude": " -82.01033", "city": "Lakeland", "fullState": "Florida"},
{"zip": "33811", "state": "FL", "latitude": " 27.978316", "longitude": " -82.00841", "city": "Southside", "fullState": "Florida"},
{"zip": "33813", "state": "FL", "latitude": " 27.965469", "longitude": " -81.92215", "city": "Southside", "fullState": "Florida"},
{"zip": "33815", "state": "FL", "latitude": " 28.042948", "longitude": " -81.98490", "city": "Lakeland", "fullState": "Florida"},
{"zip": "33823", "state": "FL", "latitude": " 28.068865", "longitude": " -81.80267", "city": "Auburndale", "fullState": "Florida"},
{"zip": "33825", "state": "FL", "latitude": " 27.600470", "longitude": " -81.50932", "city": "Avon Park", "fullState": "Florida"},
{"zip": "33827", "state": "FL", "latitude": " 27.826864", "longitude": " -81.53291", "city": "Babson Park", "fullState": "Florida"},
{"zip": "33830", "state": "FL", "latitude": " 27.894991", "longitude": " -81.82638", "city": "Bartow", "fullState": "Florida"},
{"zip": "33834", "state": "FL", "latitude": " 27.613064", "longitude": " -81.93581", "city": "Duette", "fullState": "Florida"},
{"zip": "33835", "state": "FL", "latitude": " 27.710056", "longitude": " -81.95196", "city": "Bradley", "fullState": "Florida"},
{"zip": "33837", "state": "FL", "latitude": " 28.223014", "longitude": " -81.63131", "city": "Davenport", "fullState": "Florida"},
{"zip": "33838", "state": "FL", "latitude": " 28.021066", "longitude": " -81.61872", "city": "Dundee", "fullState": "Florida"},
{"zip": "33839", "state": "FL", "latitude": " 27.980380", "longitude": " -81.75531", "city": "Eagle Lake", "fullState": "Florida"},
{"zip": "33841", "state": "FL", "latitude": " 27.743700", "longitude": " -81.79405", "city": "Fort Meade", "fullState": "Florida"},
{"zip": "33843", "state": "FL", "latitude": " 27.757986", "longitude": " -81.50880", "city": "Frostproof", "fullState": "Florida"},
{"zip": "33844", "state": "FL", "latitude": " 28.101527", "longitude": " -81.62350", "city": "Grenelefe", "fullState": "Florida"},
{"zip": "33847", "state": "FL", "latitude": " 27.815882", "longitude": " -81.82529", "city": "Homeland", "fullState": "Florida"},
{"zip": "33848", "state": "FL", "latitude": " 28.260740", "longitude": " -81.50669", "city": "Intercession City", "fullState": "Florida"},
{"zip": "33849", "state": "FL", "latitude": " 28.246250", "longitude": " -82.06358", "city": "Kathleen", "fullState": "Florida"},
{"zip": "33850", "state": "FL", "latitude": " 28.092512", "longitude": " -81.72758", "city": "Lake Alfred", "fullState": "Florida"},
{"zip": "33851", "state": "FL", "latitude": " 28.044641", "longitude": " -81.62373", "city": "Lake Hamilton", "fullState": "Florida"},
{"zip": "33852", "state": "FL", "latitude": " 27.293327", "longitude": " -81.38206", "city": "Lake Placid", "fullState": "Florida"},
{"zip": "33853", "state": "FL", "latitude": " 27.894622", "longitude": " -81.52824", "city": "Lake Wales", "fullState": "Florida"},
{"zip": "33857", "state": "FL", "latitude": " 27.397067", "longitude": " -81.14110", "city": "Lorida", "fullState": "Florida"},
{"zip": "33860", "state": "FL", "latitude": " 27.884256", "longitude": " -81.97697", "city": "Mulberry", "fullState": "Florida"},
{"zip": "33865", "state": "FL", "latitude": " 27.432764", "longitude": " -81.93703", "city": "Ona", "fullState": "Florida"},
{"zip": "33868", "state": "FL", "latitude": " 28.180035", "longitude": " -81.81863", "city": "Polk City", "fullState": "Florida"},
{"zip": "33870", "state": "FL", "latitude": " 27.483817", "longitude": " -81.42131", "city": "Sebring", "fullState": "Florida"},
{"zip": "33872", "state": "FL", "latitude": " 27.475288", "longitude": " -81.48535", "city": "Sebring", "fullState": "Florida"},
{"zip": "33873", "state": "FL", "latitude": " 27.541676", "longitude": " -81.81270", "city": "Wauchula", "fullState": "Florida"},
{"zip": "33877", "state": "FL", "latitude": " 27.982891", "longitude": " -81.61743", "city": "Waverly", "fullState": "Florida"},
{"zip": "33880", "state": "FL", "latitude": " 27.997276", "longitude": " -81.74554", "city": "Eloise", "fullState": "Florida"},
{"zip": "33881", "state": "FL", "latitude": " 28.051985", "longitude": " -81.72457", "city": "Winter Haven", "fullState": "Florida"},
{"zip": "33884", "state": "FL", "latitude": " 27.997387", "longitude": " -81.68256", "city": "Cypress Gardens", "fullState": "Florida"},
{"zip": "33890", "state": "FL", "latitude": " 27.485551", "longitude": " -81.72528", "city": "Zolfo Springs", "fullState": "Florida"},
{"zip": "338HH", "state": "FL", "latitude": " 27.815726", "longitude": " -81.57384", "city": "", "fullState": "Florida"},
{"zip": "338XX", "state": "FL", "latitude": " 27.646382", "longitude": " -81.33848", "city": "", "fullState": "Florida"},
{"zip": "33901", "state": "FL", "latitude": " 26.623650", "longitude": " -81.87270", "city": "Fort Myers", "fullState": "Florida"},
{"zip": "33903", "state": "FL", "latitude": " 26.698526", "longitude": " -81.91780", "city": "Fort Myers", "fullState": "Florida"},
{"zip": "33904", "state": "FL", "latitude": " 26.582185", "longitude": " -81.95528", "city": "Cape Coral Centr", "fullState": "Florida"},
{"zip": "33905", "state": "FL", "latitude": " 26.680407", "longitude": " -81.74812", "city": "Tice", "fullState": "Florida"},
{"zip": "33907", "state": "FL", "latitude": " 26.566053", "longitude": " -81.87009", "city": "Fort Myers", "fullState": "Florida"},
{"zip": "33908", "state": "FL", "latitude": " 26.502677", "longitude": " -81.93052", "city": "Fort Myers", "fullState": "Florida"},
{"zip": "33909", "state": "FL", "latitude": " 26.687462", "longitude": " -81.94968", "city": "Cape Coral Centr", "fullState": "Florida"},
{"zip": "33912", "state": "FL", "latitude": " 26.501582", "longitude": " -81.82841", "city": "Fort Myers", "fullState": "Florida"},
{"zip": "33913", "state": "FL", "latitude": " 26.542097", "longitude": " -81.69984", "city": "Fort Myers", "fullState": "Florida"},
{"zip": "33914", "state": "FL", "latitude": " 26.579862", "longitude": " -82.00227", "city": "Cape Coral Centr", "fullState": "Florida"},
{"zip": "33916", "state": "FL", "latitude": " 26.643500", "longitude": " -81.84418", "city": "Fort Myers", "fullState": "Florida"},
{"zip": "33917", "state": "FL", "latitude": " 26.711647", "longitude": " -81.86500", "city": "Fort Myers", "fullState": "Florida"},
{"zip": "33919", "state": "FL", "latitude": " 26.555958", "longitude": " -81.90174", "city": "College Parkway", "fullState": "Florida"},
{"zip": "33920", "state": "FL", "latitude": " 26.711362", "longitude": " -81.61684", "city": "Alva", "fullState": "Florida"},
{"zip": "33921", "state": "FL", "latitude": " 26.759514", "longitude": " -82.26351", "city": "Boca Grande", "fullState": "Florida"},
{"zip": "33922", "state": "FL", "latitude": " 26.663600", "longitude": " -82.14112", "city": "Bokeelia", "fullState": "Florida"},
{"zip": "33924", "state": "FL", "latitude": " 26.519415", "longitude": " -82.19101", "city": "Captiva", "fullState": "Florida"},
{"zip": "33928", "state": "FL", "latitude": " 26.425671", "longitude": " -81.80196", "city": "Estero", "fullState": "Florida"},
{"zip": "33930", "state": "FL", "latitude": " 26.581172", "longitude": " -81.46202", "city": "Felda", "fullState": "Florida"},
{"zip": "33931", "state": "FL", "latitude": " 26.446463", "longitude": " -81.93269", "city": "Fort Myers Beach", "fullState": "Florida"},
{"zip": "33935", "state": "FL", "latitude": " 26.760476", "longitude": " -81.43029", "city": "Labelle", "fullState": "Florida"},
{"zip": "33936", "state": "FL", "latitude": " 26.588982", "longitude": " -81.61163", "city": "Lehigh Acres", "fullState": "Florida"},
{"zip": "33944", "state": "FL", "latitude": " 26.959250", "longitude": " -81.31568", "city": "Palmdale", "fullState": "Florida"},
{"zip": "33945", "state": "FL", "latitude": " 26.599510", "longitude": " -82.22166", "city": "Pineland", "fullState": "Florida"},
{"zip": "33946", "state": "FL", "latitude": " 26.849473", "longitude": " -82.28661", "city": "Placida", "fullState": "Florida"},
{"zip": "33947", "state": "FL", "latitude": " 26.894448", "longitude": " -82.26125", "city": "Placida", "fullState": "Florida"},
{"zip": "33948", "state": "FL", "latitude": " 26.984486", "longitude": " -82.14859", "city": "Port Charlotte", "fullState": "Florida"},
{"zip": "33950", "state": "FL", "latitude": " 26.914393", "longitude": " -82.04106", "city": "Punta Gorda", "fullState": "Florida"},
{"zip": "33952", "state": "FL", "latitude": " 26.993876", "longitude": " -82.09821", "city": "Port Charlotte", "fullState": "Florida"},
{"zip": "33953", "state": "FL", "latitude": " 27.012758", "longitude": " -82.21120", "city": "Port Charlotte", "fullState": "Florida"},
{"zip": "33954", "state": "FL", "latitude": " 27.024420", "longitude": " -82.12225", "city": "Port Charlotte", "fullState": "Florida"},
{"zip": "33955", "state": "FL", "latitude": " 26.837879", "longitude": " -82.00403", "city": "Punta Gorda", "fullState": "Florida"},
{"zip": "33956", "state": "FL", "latitude": " 26.536435", "longitude": " -82.09150", "city": "Saint James City", "fullState": "Florida"},
{"zip": "33957", "state": "FL", "latitude": " 26.439608", "longitude": " -82.08045", "city": "Sanibel", "fullState": "Florida"},
{"zip": "33960", "state": "FL", "latitude": " 27.052583", "longitude": " -81.39628", "city": "Venus", "fullState": "Florida"},
{"zip": "33971", "state": "FL", "latitude": " 26.605990", "longitude": " -81.70296", "city": "Lehigh Acres", "fullState": "Florida"},
{"zip": "33972", "state": "FL", "latitude": " 26.634332", "longitude": " -81.59391", "city": "Lehigh Acres", "fullState": "Florida"},
{"zip": "33975", "state": "FL", "latitude": " 26.742327", "longitude": " -81.27863", "city": "Labelle", "fullState": "Florida"},
{"zip": "33980", "state": "FL", "latitude": " 26.983094", "longitude": " -82.05972", "city": "Port Charlotte", "fullState": "Florida"},
{"zip": "33981", "state": "FL", "latitude": " 26.922089", "longitude": " -82.23092", "city": "Port Charlotte", "fullState": "Florida"},
{"zip": "33982", "state": "FL", "latitude": " 26.958821", "longitude": " -81.95134", "city": "Punta Gorda", "fullState": "Florida"},
{"zip": "33983", "state": "FL", "latitude": " 26.999486", "longitude": " -82.00964", "city": "Punta Gorda", "fullState": "Florida"},
{"zip": "33990", "state": "FL", "latitude": " 26.630750", "longitude": " -81.95251", "city": "Cape Coral Centr", "fullState": "Florida"},
{"zip": "33991", "state": "FL", "latitude": " 26.634338", "longitude": " -82.00674", "city": "Cape Coral Centr", "fullState": "Florida"},
{"zip": "33993", "state": "FL", "latitude": " 26.681122", "longitude": " -82.01319", "city": "Cape Coral", "fullState": "Florida"},
{"zip": "339HH", "state": "FL", "latitude": " 26.686716", "longitude": " -81.99662", "city": "", "fullState": "Florida"},
{"zip": "339XX", "state": "FL", "latitude": " 26.944499", "longitude": " -81.48617", "city": "", "fullState": "Florida"},
{"zip": "34102", "state": "FL", "latitude": " 26.142938", "longitude": " -81.79852", "city": "Naples", "fullState": "Florida"},
{"zip": "34103", "state": "FL", "latitude": " 26.191117", "longitude": " -81.80333", "city": "Naples", "fullState": "Florida"},
{"zip": "34104", "state": "FL", "latitude": " 26.150910", "longitude": " -81.74770", "city": "Naples", "fullState": "Florida"},
{"zip": "34105", "state": "FL", "latitude": " 26.187767", "longitude": " -81.76829", "city": "Naples", "fullState": "Florida"},
{"zip": "34108", "state": "FL", "latitude": " 26.252711", "longitude": " -81.80825", "city": "Naples", "fullState": "Florida"},
{"zip": "34109", "state": "FL", "latitude": " 26.240637", "longitude": " -81.76663", "city": "Naples", "fullState": "Florida"},
{"zip": "34110", "state": "FL", "latitude": " 26.288280", "longitude": " -81.78726", "city": "Naples", "fullState": "Florida"},
{"zip": "34112", "state": "FL", "latitude": " 26.121546", "longitude": " -81.75251", "city": "Naples", "fullState": "Florida"},
{"zip": "34113", "state": "FL", "latitude": " 26.067538", "longitude": " -81.72002", "city": "Naples", "fullState": "Florida"},
{"zip": "34114", "state": "FL", "latitude": " 26.020283", "longitude": " -81.63094", "city": "Naples", "fullState": "Florida"},
{"zip": "34116", "state": "FL", "latitude": " 26.183424", "longitude": " -81.70643", "city": "Naples", "fullState": "Florida"},
{"zip": "34117", "state": "FL", "latitude": " 26.178500", "longitude": " -81.55495", "city": "Naples", "fullState": "Florida"},
{"zip": "34119", "state": "FL", "latitude": " 26.256551", "longitude": " -81.71860", "city": "Naples", "fullState": "Florida"},
{"zip": "34120", "state": "FL", "latitude": " 26.275676", "longitude": " -81.59586", "city": "Naples", "fullState": "Florida"},
{"zip": "34134", "state": "FL", "latitude": " 26.348608", "longitude": " -81.83134", "city": "Bonita Springs", "fullState": "Florida"},
{"zip": "34135", "state": "FL", "latitude": " 26.348523", "longitude": " -81.77391", "city": "Bonita Springs", "fullState": "Florida"},
{"zip": "34137", "state": "FL", "latitude": " 26.035690", "longitude": " -81.46799", "city": "Copeland", "fullState": "Florida"},
{"zip": "34138", "state": "FL", "latitude": " 25.813786", "longitude": " -81.36291", "city": "Chokoloskee", "fullState": "Florida"},
{"zip": "34139", "state": "FL", "latitude": " 25.856771", "longitude": " -81.38412", "city": "Everglades City", "fullState": "Florida"},
{"zip": "34141", "state": "FL", "latitude": " 25.726500", "longitude": " -81.20151", "city": "Ochopee", "fullState": "Florida"},
{"zip": "34142", "state": "FL", "latitude": " 26.398248", "longitude": " -81.39325", "city": "Immokalee", "fullState": "Florida"},
{"zip": "34145", "state": "FL", "latitude": " 25.940112", "longitude": " -81.71329", "city": "Marco Island", "fullState": "Florida"},
{"zip": "341HH", "state": "FL", "latitude": " 25.927925", "longitude": " -81.64864", "city": "", "fullState": "Florida"},
{"zip": "341XX", "state": "FL", "latitude": " 25.714460", "longitude": " -81.26259", "city": "", "fullState": "Florida"},
{"zip": "34201", "state": "FL", "latitude": " 27.400627", "longitude": " -82.47104", "city": "Bradenton", "fullState": "Florida"},
{"zip": "34202", "state": "FL", "latitude": " 27.434755", "longitude": " -82.40211", "city": "Braden River", "fullState": "Florida"},
{"zip": "34203", "state": "FL", "latitude": " 27.448369", "longitude": " -82.52324", "city": "Braden River", "fullState": "Florida"},
{"zip": "34205", "state": "FL", "latitude": " 27.485617", "longitude": " -82.58294", "city": "Westgate", "fullState": "Florida"},
{"zip": "34207", "state": "FL", "latitude": " 27.438719", "longitude": " -82.57646", "city": "College Plaza", "fullState": "Florida"},
{"zip": "34208", "state": "FL", "latitude": " 27.486448", "longitude": " -82.53500", "city": "Braden River", "fullState": "Florida"},
{"zip": "34209", "state": "FL", "latitude": " 27.488866", "longitude": " -82.62737", "city": "Palma Sola", "fullState": "Florida"},
{"zip": "34210", "state": "FL", "latitude": " 27.455543", "longitude": " -82.63372", "city": "Bradenton", "fullState": "Florida"},
{"zip": "34215", "state": "FL", "latitude": " 27.469113", "longitude": " -82.68765", "city": "Cortez", "fullState": "Florida"},
{"zip": "34216", "state": "FL", "latitude": " 27.530644", "longitude": " -82.73594", "city": "Anna Maria", "fullState": "Florida"},
{"zip": "34217", "state": "FL", "latitude": " 27.499982", "longitude": " -82.71290", "city": "Bradenton Beach", "fullState": "Florida"},
{"zip": "34219", "state": "FL", "latitude": " 27.574128", "longitude": " -82.40701", "city": "Parrish", "fullState": "Florida"},
{"zip": "34221", "state": "FL", "latitude": " 27.549314", "longitude": " -82.55981", "city": "Palmetto", "fullState": "Florida"},
{"zip": "34222", "state": "FL", "latitude": " 27.532098", "longitude": " -82.50090", "city": "Ellenton", "fullState": "Florida"},
{"zip": "34223", "state": "FL", "latitude": " 26.974858", "longitude": " -82.36650", "city": "Englewood", "fullState": "Florida"},
{"zip": "34224", "state": "FL", "latitude": " 26.925265", "longitude": " -82.29693", "city": "Grove City", "fullState": "Florida"},
{"zip": "34228", "state": "FL", "latitude": " 27.396931", "longitude": " -82.64475", "city": "Whitney Beach", "fullState": "Florida"},
{"zip": "34229", "state": "FL", "latitude": " 27.187829", "longitude": " -82.48539", "city": "Osprey", "fullState": "Florida"},
{"zip": "34231", "state": "FL", "latitude": " 27.267649", "longitude": " -82.51663", "city": "South Trail", "fullState": "Florida"},
{"zip": "34232", "state": "FL", "latitude": " 27.321313", "longitude": " -82.47648", "city": "Forest Lakes", "fullState": "Florida"},
{"zip": "34233", "state": "FL", "latitude": " 27.285142", "longitude": " -82.47363", "city": "Sarasota", "fullState": "Florida"},
{"zip": "34234", "state": "FL", "latitude": " 27.365622", "longitude": " -82.53556", "city": "Meadows Village", "fullState": "Florida"},
{"zip": "34235", "state": "FL", "latitude": " 27.365549", "longitude": " -82.48659", "city": "Sarasota", "fullState": "Florida"},
{"zip": "34236", "state": "FL", "latitude": " 27.333014", "longitude": " -82.54613", "city": "Sarasota", "fullState": "Florida"},
{"zip": "34237", "state": "FL", "latitude": " 27.336973", "longitude": " -82.51506", "city": "Sarasota", "fullState": "Florida"},
{"zip": "34238", "state": "FL", "latitude": " 27.240571", "longitude": " -82.47836", "city": "Sarasota Square", "fullState": "Florida"},
{"zip": "34239", "state": "FL", "latitude": " 27.310924", "longitude": " -82.52130", "city": "Sarasota", "fullState": "Florida"},
{"zip": "34240", "state": "FL", "latitude": " 27.334580", "longitude": " -82.40894", "city": "Sarasota", "fullState": "Florida"},
{"zip": "34241", "state": "FL", "latitude": " 27.272873", "longitude": " -82.41676", "city": "Sarasota", "fullState": "Florida"},
{"zip": "34242", "state": "FL", "latitude": " 27.275225", "longitude": " -82.54934", "city": "Crescent Beach", "fullState": "Florida"},
{"zip": "34243", "state": "FL", "latitude": " 27.407657", "longitude": " -82.52923", "city": "Sarasota", "fullState": "Florida"},
{"zip": "34250", "state": "FL", "latitude": " 27.575972", "longitude": " -82.58493", "city": "Terra Ceia", "fullState": "Florida"},
{"zip": "34251", "state": "FL", "latitude": " 27.396045", "longitude": " -82.23349", "city": "Myakka City", "fullState": "Florida"},
{"zip": "34266", "state": "FL", "latitude": " 27.201006", "longitude": " -81.87196", "city": "Arcadia", "fullState": "Florida"},
{"zip": "34268", "state": "FL", "latitude": " 27.158612", "longitude": " -81.88324", "city": "Nocatee", "fullState": "Florida"},
{"zip": "34275", "state": "FL", "latitude": " 27.136731", "longitude": " -82.45241", "city": "Nokomis", "fullState": "Florida"},
{"zip": "34285", "state": "FL", "latitude": " 27.091783", "longitude": " -82.44846", "city": "Venice", "fullState": "Florida"},
{"zip": "34286", "state": "FL", "latitude": " 27.072445", "longitude": " -82.16060", "city": "North Port", "fullState": "Florida"},
{"zip": "34287", "state": "FL", "latitude": " 27.051075", "longitude": " -82.24417", "city": "North Port", "fullState": "Florida"},
{"zip": "34292", "state": "FL", "latitude": " 27.098474", "longitude": " -82.41481", "city": "Mid Venice", "fullState": "Florida"},
{"zip": "34293", "state": "FL", "latitude": " 27.055013", "longitude": " -82.39730", "city": "South Venice", "fullState": "Florida"},
{"zip": "342HH", "state": "FL", "latitude": " 27.326174", "longitude": " -82.53233", "city": "", "fullState": "Florida"},
{"zip": "342XX", "state": "FL", "latitude": " 27.101460", "longitude": " -82.31331", "city": "", "fullState": "Florida"},
{"zip": "34420", "state": "FL", "latitude": " 29.054976", "longitude": " -82.04255", "city": "Belleview", "fullState": "Florida"},
{"zip": "34428", "state": "FL", "latitude": " 28.951380", "longitude": " -82.61213", "city": "Crystal River", "fullState": "Florida"},
{"zip": "34429", "state": "FL", "latitude": " 28.872108", "longitude": " -82.59610", "city": "Crystal River", "fullState": "Florida"},
{"zip": "34431", "state": "FL", "latitude": " 29.131665", "longitude": " -82.49726", "city": "Dunnellon", "fullState": "Florida"},
{"zip": "34432", "state": "FL", "latitude": " 29.060092", "longitude": " -82.35195", "city": "Dunnellon", "fullState": "Florida"},
{"zip": "34433", "state": "FL", "latitude": " 28.997155", "longitude": " -82.50053", "city": "Dunnellon", "fullState": "Florida"},
{"zip": "34434", "state": "FL", "latitude": " 28.994090", "longitude": " -82.45364", "city": "Dunnellon", "fullState": "Florida"},
{"zip": "34436", "state": "FL", "latitude": " 28.751024", "longitude": " -82.28449", "city": "Floral City", "fullState": "Florida"},
{"zip": "34442", "state": "FL", "latitude": " 28.932925", "longitude": " -82.39477", "city": "Hernando", "fullState": "Florida"},
{"zip": "34446", "state": "FL", "latitude": " 28.746912", "longitude": " -82.53331", "city": "Homosassa", "fullState": "Florida"},
{"zip": "34448", "state": "FL", "latitude": " 28.797979", "longitude": " -82.59120", "city": "Homosassa", "fullState": "Florida"},
{"zip": "34449", "state": "FL", "latitude": " 29.076640", "longitude": " -82.68022", "city": "Inglis", "fullState": "Florida"},
{"zip": "34450", "state": "FL", "latitude": " 28.829773", "longitude": " -82.29019", "city": "Inverness", "fullState": "Florida"},
{"zip": "34452", "state": "FL", "latitude": " 28.793722", "longitude": " -82.35021", "city": "Inverness", "fullState": "Florida"},
{"zip": "34453", "state": "FL", "latitude": " 28.865761", "longitude": " -82.35982", "city": "Inverness", "fullState": "Florida"},
{"zip": "34461", "state": "FL", "latitude": " 28.848776", "longitude": " -82.48108", "city": "Lecanto", "fullState": "Florida"},
{"zip": "34465", "state": "FL", "latitude": " 28.932403", "longitude": " -82.47641", "city": "Beverly Hills", "fullState": "Florida"},
{"zip": "34470", "state": "FL", "latitude": " 29.198704", "longitude": " -82.10556", "city": "Ocala", "fullState": "Florida"},
{"zip": "34471", "state": "FL", "latitude": " 29.171187", "longitude": " -82.10394", "city": "Ocala", "fullState": "Florida"},
{"zip": "34472", "state": "FL", "latitude": " 29.120287", "longitude": " -82.02133", "city": "Ocala", "fullState": "Florida"},
{"zip": "34473", "state": "FL", "latitude": " 29.003195", "longitude": " -82.18990", "city": "Ocala", "fullState": "Florida"},
{"zip": "34474", "state": "FL", "latitude": " 29.166186", "longitude": " -82.17027", "city": "Ocala", "fullState": "Florida"},
{"zip": "34475", "state": "FL", "latitude": " 29.212886", "longitude": " -82.15378", "city": "Ocala", "fullState": "Florida"},
{"zip": "34476", "state": "FL", "latitude": " 29.080910", "longitude": " -82.21004", "city": "Ocala", "fullState": "Florida"},
{"zip": "34479", "state": "FL", "latitude": " 29.235430", "longitude": " -82.11070", "city": "Ocala", "fullState": "Florida"},
{"zip": "34480", "state": "FL", "latitude": " 29.122950", "longitude": " -82.08160", "city": "Ocala", "fullState": "Florida"},
{"zip": "34481", "state": "FL", "latitude": " 29.124611", "longitude": " -82.32271", "city": "Ocala", "fullState": "Florida"},
{"zip": "34482", "state": "FL", "latitude": " 29.232873", "longitude": " -82.25220", "city": "Ocala", "fullState": "Florida"},
{"zip": "34484", "state": "FL", "latitude": " 28.921705", "longitude": " -82.07847", "city": "Oxford", "fullState": "Florida"},
{"zip": "34488", "state": "FL", "latitude": " 29.198564", "longitude": " -81.92095", "city": "Silver Springs", "fullState": "Florida"},
{"zip": "34491", "state": "FL", "latitude": " 28.991135", "longitude": " -82.02658", "city": "Summerfield", "fullState": "Florida"},
{"zip": "34498", "state": "FL", "latitude": " 29.031155", "longitude": " -82.72010", "city": "Yankeetown", "fullState": "Florida"},
{"zip": "344HH", "state": "FL", "latitude": " 28.886275", "longitude": " -82.59493", "city": "", "fullState": "Florida"},
{"zip": "344XX", "state": "FL", "latitude": " 28.855761", "longitude": " -82.42175", "city": "", "fullState": "Florida"},
{"zip": "34601", "state": "FL", "latitude": " 28.566183", "longitude": " -82.38002", "city": "Brooksville", "fullState": "Florida"},
{"zip": "34602", "state": "FL", "latitude": " 28.515890", "longitude": " -82.26576", "city": "Ridge Manor West", "fullState": "Florida"},
{"zip": "34606", "state": "FL", "latitude": " 28.470236", "longitude": " -82.59741", "city": "Spring Hill", "fullState": "Florida"},
{"zip": "34607", "state": "FL", "latitude": " 28.516609", "longitude": " -82.61302", "city": "Spring Hill", "fullState": "Florida"},
{"zip": "34608", "state": "FL", "latitude": " 28.484316", "longitude": " -82.55181", "city": "Spring Hill", "fullState": "Florida"},
{"zip": "34609", "state": "FL", "latitude": " 28.475662", "longitude": " -82.50199", "city": "Spring Hill", "fullState": "Florida"},
{"zip": "34610", "state": "FL", "latitude": " 28.397791", "longitude": " -82.53084", "city": "Shady Hills", "fullState": "Florida"},
{"zip": "34613", "state": "FL", "latitude": " 28.555346", "longitude": " -82.53601", "city": "Brooksville", "fullState": "Florida"},
{"zip": "34614", "state": "FL", "latitude": " 28.632101", "longitude": " -82.52181", "city": "Brooksville", "fullState": "Florida"},
{"zip": "34639", "state": "FL", "latitude": " 28.233671", "longitude": " -82.45463", "city": "Land O Lakes", "fullState": "Florida"},
{"zip": "34652", "state": "FL", "latitude": " 28.237582", "longitude": " -82.72818", "city": "New Port Richey", "fullState": "Florida"},
{"zip": "34653", "state": "FL", "latitude": " 28.248558", "longitude": " -82.69869", "city": "New Port Richey", "fullState": "Florida"},
{"zip": "34654", "state": "FL", "latitude": " 28.295714", "longitude": " -82.61782", "city": "New Port Richey", "fullState": "Florida"},
{"zip": "34655", "state": "FL", "latitude": " 28.209833", "longitude": " -82.66973", "city": "New Port Richey", "fullState": "Florida"},
{"zip": "34661", "state": "FL", "latitude": " 28.643141", "longitude": " -82.26051", "city": "Nobleton", "fullState": "Florida"},
{"zip": "34667", "state": "FL", "latitude": " 28.372441", "longitude": " -82.66603", "city": "Hudson", "fullState": "Florida"},
{"zip": "34668", "state": "FL", "latitude": " 28.300730", "longitude": " -82.69698", "city": "Port Richey", "fullState": "Florida"},
{"zip": "34669", "state": "FL", "latitude": " 28.348507", "longitude": " -82.61937", "city": "Hudson", "fullState": "Florida"},
{"zip": "34677", "state": "FL", "latitude": " 28.042799", "longitude": " -82.67737", "city": "Oldsmar", "fullState": "Florida"},
{"zip": "34679", "state": "FL", "latitude": " 28.429478", "longitude": " -82.66315", "city": "Aripeka", "fullState": "Florida"},
{"zip": "34681", "state": "FL", "latitude": " 28.088443", "longitude": " -82.77834", "city": "Crystal Beach", "fullState": "Florida"},
{"zip": "34683", "state": "FL", "latitude": " 28.076744", "longitude": " -82.76116", "city": "Palm Harbor", "fullState": "Florida"},
{"zip": "34684", "state": "FL", "latitude": " 28.081325", "longitude": " -82.72751", "city": "Lake Tarpon", "fullState": "Florida"},
{"zip": "34685", "state": "FL", "latitude": " 28.099485", "longitude": " -82.69532", "city": "Palm Harbor", "fullState": "Florida"},
{"zip": "34689", "state": "FL", "latitude": " 28.149691", "longitude": " -82.75339", "city": "Tarpon Springs", "fullState": "Florida"},
{"zip": "34690", "state": "FL", "latitude": " 28.190181", "longitude": " -82.72696", "city": "Holiday", "fullState": "Florida"},
{"zip": "34691", "state": "FL", "latitude": " 28.190060", "longitude": " -82.75735", "city": "Holiday", "fullState": "Florida"},
{"zip": "34695", "state": "FL", "latitude": " 28.005639", "longitude": " -82.69511", "city": "Safety Harbor", "fullState": "Florida"},
{"zip": "34698", "state": "FL", "latitude": " 28.025395", "longitude": " -82.77534", "city": "Dunedin", "fullState": "Florida"},
{"zip": "346HH", "state": "FL", "latitude": " 28.163334", "longitude": " -82.73988", "city": "", "fullState": "Florida"},
{"zip": "346XX", "state": "FL", "latitude": " 28.250633", "longitude": " -82.56626", "city": "", "fullState": "Florida"},
{"zip": "34705", "state": "FL", "latitude": " 28.708139", "longitude": " -81.73307", "city": "Astatula", "fullState": "Florida"},
{"zip": "34711", "state": "FL", "latitude": " 28.545742", "longitude": " -81.74805", "city": "Clermont", "fullState": "Florida"},
{"zip": "34731", "state": "FL", "latitude": " 28.859765", "longitude": " -81.90184", "city": "Fruitland Park", "fullState": "Florida"},
{"zip": "34734", "state": "FL", "latitude": " 28.543429", "longitude": " -81.52479", "city": "Gotha", "fullState": "Florida"},
{"zip": "34736", "state": "FL", "latitude": " 28.571677", "longitude": " -81.86649", "city": "Groveland", "fullState": "Florida"},
{"zip": "34737", "state": "FL", "latitude": " 28.711167", "longitude": " -81.77955", "city": "Howey In The Hil", "fullState": "Florida"},
{"zip": "34739", "state": "FL", "latitude": " 27.938975", "longitude": " -81.09510", "city": "Kenansville", "fullState": "Florida"},
{"zip": "34741", "state": "FL", "latitude": " 28.301788", "longitude": " -81.42159", "city": "Kissimmee", "fullState": "Florida"},
{"zip": "34743", "state": "FL", "latitude": " 28.325715", "longitude": " -81.35408", "city": "Buena Ventura La", "fullState": "Florida"},
{"zip": "34744", "state": "FL", "latitude": " 28.308979", "longitude": " -81.37594", "city": "Kissimmee", "fullState": "Florida"},
{"zip": "34746", "state": "FL", "latitude": " 28.287883", "longitude": " -81.46862", "city": "Kissimmee", "fullState": "Florida"},
{"zip": "34747", "state": "FL", "latitude": " 28.326187", "longitude": " -81.58897", "city": "Kissimmee", "fullState": "Florida"},
{"zip": "34748", "state": "FL", "latitude": " 28.797245", "longitude": " -81.88466", "city": "Leesburg", "fullState": "Florida"},
{"zip": "34753", "state": "FL", "latitude": " 28.583191", "longitude": " -81.89038", "city": "Mascotte", "fullState": "Florida"},
{"zip": "34756", "state": "FL", "latitude": " 28.597126", "longitude": " -81.67579", "city": "Montverde", "fullState": "Florida"},
{"zip": "34758", "state": "FL", "latitude": " 28.178192", "longitude": " -81.48731", "city": "Kissimmee", "fullState": "Florida"},
{"zip": "34759", "state": "FL", "latitude": " 28.094144", "longitude": " -81.48395", "city": "Poinciana", "fullState": "Florida"},
{"zip": "34760", "state": "FL", "latitude": " 28.555328", "longitude": " -81.63104", "city": "Oakland", "fullState": "Florida"},
{"zip": "34761", "state": "FL", "latitude": " 28.574628", "longitude": " -81.52946", "city": "Ocoee", "fullState": "Florida"},
{"zip": "34762", "state": "FL", "latitude": " 28.735088", "longitude": " -81.91035", "city": "Okahumpka", "fullState": "Florida"},
{"zip": "34769", "state": "FL", "latitude": " 28.249340", "longitude": " -81.28749", "city": "Saint Cloud", "fullState": "Florida"},
{"zip": "34771", "state": "FL", "latitude": " 28.271939", "longitude": " -81.19645", "city": "Saint Cloud", "fullState": "Florida"},
{"zip": "34772", "state": "FL", "latitude": " 28.198441", "longitude": " -81.27246", "city": "Saint Cloud", "fullState": "Florida"},
{"zip": "34773", "state": "FL", "latitude": " 28.160376", "longitude": " -81.00041", "city": "Saint Cloud", "fullState": "Florida"},
{"zip": "34785", "state": "FL", "latitude": " 28.852564", "longitude": " -82.03210", "city": "Wildwood", "fullState": "Florida"},
{"zip": "34786", "state": "FL", "latitude": " 28.495982", "longitude": " -81.53620", "city": "Windermere", "fullState": "Florida"},
{"zip": "34787", "state": "FL", "latitude": " 28.536794", "longitude": " -81.59344", "city": "Winter Garden", "fullState": "Florida"},
{"zip": "34788", "state": "FL", "latitude": " 28.857425", "longitude": " -81.78450", "city": "Haines Creek", "fullState": "Florida"},
{"zip": "34797", "state": "FL", "latitude": " 28.744182", "longitude": " -81.81859", "city": "Yalaha", "fullState": "Florida"},
{"zip": "347HH", "state": "FL", "latitude": " 28.488498", "longitude": " -81.55031", "city": "", "fullState": "Florida"},
{"zip": "347XX", "state": "FL", "latitude": " 28.040535", "longitude": " -80.90982", "city": "", "fullState": "Florida"},
{"zip": "34945", "state": "FL", "latitude": " 27.431607", "longitude": " -80.49150", "city": "Fort Pierce", "fullState": "Florida"},
{"zip": "34946", "state": "FL", "latitude": " 27.485272", "longitude": " -80.35243", "city": "Fort Pierce", "fullState": "Florida"},
{"zip": "34947", "state": "FL", "latitude": " 27.448688", "longitude": " -80.36247", "city": "Fort Pierce", "fullState": "Florida"},
{"zip": "34949", "state": "FL", "latitude": " 27.472857", "longitude": " -80.29901", "city": "Fort Pierce", "fullState": "Florida"},
{"zip": "34950", "state": "FL", "latitude": " 27.448016", "longitude": " -80.33644", "city": "Fort Pierce", "fullState": "Florida"},
{"zip": "34951", "state": "FL", "latitude": " 27.538310", "longitude": " -80.40526", "city": "Fort Pierce", "fullState": "Florida"},
{"zip": "34952", "state": "FL", "latitude": " 27.291694", "longitude": " -80.29691", "city": "Port Saint Lucie", "fullState": "Florida"},
{"zip": "34953", "state": "FL", "latitude": " 27.246754", "longitude": " -80.38145", "city": "Port Saint Lucie", "fullState": "Florida"},
{"zip": "34956", "state": "FL", "latitude": " 27.049788", "longitude": " -80.48057", "city": "Indiantown", "fullState": "Florida"},
{"zip": "34957", "state": "FL", "latitude": " 27.248445", "longitude": " -80.23277", "city": "Jensen Beach", "fullState": "Florida"},
{"zip": "34972", "state": "FL", "latitude": " 27.391710", "longitude": " -80.87555", "city": "Basinger", "fullState": "Florida"},
{"zip": "34974", "state": "FL", "latitude": " 27.194400", "longitude": " -80.84644", "city": "Okeechobee", "fullState": "Florida"},
{"zip": "34981", "state": "FL", "latitude": " 27.410069", "longitude": " -80.36327", "city": "Fort Pierce", "fullState": "Florida"},
{"zip": "34982", "state": "FL", "latitude": " 27.393097", "longitude": " -80.32790", "city": "Fort Pierce", "fullState": "Florida"},
{"zip": "34983", "state": "FL", "latitude": " 27.312471", "longitude": " -80.34907", "city": "Port Saint Lucie", "fullState": "Florida"},
{"zip": "34984", "state": "FL", "latitude": " 27.273272", "longitude": " -80.34727", "city": "Port Saint Lucie", "fullState": "Florida"},
{"zip": "34986", "state": "FL", "latitude": " 27.341158", "longitude": " -80.39786", "city": "Port Saint Lucie", "fullState": "Florida"},
{"zip": "34987", "state": "FL", "latitude": " 27.273586", "longitude": " -80.46447", "city": "Port Saint Lucie", "fullState": "Florida"},
{"zip": "34990", "state": "FL", "latitude": " 27.163485", "longitude": " -80.31267", "city": "Palm City", "fullState": "Florida"},
{"zip": "34994", "state": "FL", "latitude": " 27.195291", "longitude": " -80.25225", "city": "Stuart", "fullState": "Florida"},
{"zip": "34996", "state": "FL", "latitude": " 27.195927", "longitude": " -80.21143", "city": "Stuart", "fullState": "Florida"},
{"zip": "34997", "state": "FL", "latitude": " 27.136003", "longitude": " -80.21686", "city": "Stuart", "fullState": "Florida"},
{"zip": "349HH", "state": "FL", "latitude": " 27.272123", "longitude": " -80.39503", "city": "", "fullState": "Florida"},
{"zip": "349XX", "state": "FL", "latitude": " 27.275776", "longitude": " -80.66755", "city": "", "fullState": "Florida"},
]